area_code,city,state,country,latitude,longitude,state_name
201,Bayonne,NJ,US,40.66871,-74.11431,New Jersey
201,Bergenfield,NJ,US,40.9276,-73.99736,New Jersey
201,Cliffside Park,NJ,US,40.82149,-73.98764,New Jersey
201,Englewood,NJ,US,40.89288,-73.97264,New Jersey
201,Fair Lawn,NJ,US,40.94038,-74.13181,New Jersey
201,Fort Lee,NJ,US,40.85093,-73.97014,New Jersey
201,Hackensack,NJ,US,40.88593,-74.04347,New Jersey
201,Hoboken,NJ,US,40.74399,-74.03236,New Jersey
201,Jersey City,NJ,US,40.72816,-74.07764,New Jersey
201,Kearny,NJ,US,40.76843,-74.14542,New Jersey
201,North Bergen,NJ,US,40.80427,-74.01208,New Jersey
201,Paramus,NJ,US,40.94454,-74.07542,New Jersey
201,Ridgewood,NJ,US,40.97926,-74.11653,New Jersey
201,Teaneck,NJ,US,40.8976,-74.01597,New Jersey
201,Union City,NJ,US,40.77955,-74.02375,New Jersey
201,West New York,NJ,US,40.78788,-74.01431,New Jersey
202,Washington,,US,38.89511,-77.03637,District of Columbia
203,Bridgeport,CT,US,41.16704,-73.20483,Connecticut
203,Danbury,CT,US,41.39482,-73.45401,Connecticut
203,East Haven,CT,US,41.27621,-72.86843,Connecticut
203,Meriden,CT,US,41.53815,-72.80704,Connecticut
203,Milford,CT,US,41.22232,-73.0565,Connecticut
203,Naugatuck,CT,US,41.48593,-73.05066,Connecticut
203,New Haven,CT,US,41.30815,-72.92816,Connecticut
203,North Haven,CT,US,41.39093,-72.85954,Connecticut
203,Norwalk,CT,US,41.1176,-73.4079,Connecticut
203,Shelton,CT,US,41.31649,-73.09316,Connecticut
203,Stamford,CT,US,41.05343,-73.53873,Connecticut
203,Stratford,CT,US,41.18454,-73.13317,Connecticut
203,Trumbull,CT,US,41.24287,-73.20067,Connecticut
203,Waterbury,CT,US,41.55815,-73.0515,Connecticut
203,West Haven,CT,US,41.27065,-72.94705,Connecticut
203,Westport,CT,US,41.14149,-73.3579,Connecticut
205,Alabaster,AL,US,33.24428,-86.81638,Alabama
205,Bessemer,AL,US,33.40178,-86.95444,Alabama
205,Birmingham,AL,US,33.52066,-86.80249,Alabama
205,Center Point,AL,US,33.64566,-86.6836,Alabama
205,Homewood,AL,US,33.47177,-86.80082,Alabama
205,Hoover,AL,US,33.40539,-86.81138,Alabama
205,Mountain Brook,AL,US,33.50094,-86.75221,Alabama
205,Tuscaloosa,AL,US,33.20984,-87.56917,Alabama
205,Vestavia Hills,AL,US,33.44872,-86.78777,Alabama
206,Bainbridge Island,WA,US,47.62621,-122.52124,Washington
206,Burien,WA,US,47.47038,-122.34679,Washington
206,Des Moines,WA,US,47.40177,-122.32429,Washington
206,Mercer Island,WA,US,47.57065,-122.22207,Washington
206,Seattle,WA,US,47.60621,-122.33207,Washington
206,Shoreline,WA,US,47.75565,-122.34152,Washington
206,White Center,WA,US,47.51732,-122.35485,Washington
207,Auburn,ME,US,44.09785,-70.23117,Maine
207,Augusta,ME,US,44.31062,-69.77949,Maine
207,Bangor,ME,US,44.80118,-68.77781,Maine
207,Biddeford,ME,US,43.49258,-70.45338,Maine
207,Brunswick,ME,US,43.91452,-69.96533,Maine
207,Lewiston,ME,US,44.10035,-70.21478,Maine
207,South Portland,ME,US,43.64147,-70.24088,Maine
208,Boise,ID,US,43.6135,-116.20345,Idaho
208,Caldwell,ID,US,43.66294,-116.68736,Idaho
208,Coeur d'Alene,ID,US,47.67768,-116.78047,Idaho
208,Idaho Falls,ID,US,43.46658,-112.03414,Idaho
208,Lewiston,ID,US,46.41655,-117.01766,Idaho
208,Meridian,ID,US,43.61211,-116.39151,Idaho
208,Moscow,ID,US,46.73239,-117.00017,Idaho
208,Nampa,ID,US,43.54072,-116.56346,Idaho
208,Pocatello,ID,US,42.8713,-112.44553,Idaho
208,Twin Falls,ID,US,42.56297,-114.46087,Idaho
209,Atwater,CA,US,37.34772,-120.60908,California
209,Ceres,CA,US,37.59493,-120.95771,California
209,Lodi,CA,US,38.1302,-121.27245,California
209,Los Banos,CA,US,37.05828,-120.84992,California
209,Manteca,CA,US,37.79743,-121.21605,California
209,Merced,CA,US,37.30216,-120.48297,California
209,West Modesto,CA,US,37.61754,-121.03914,California
209,Stockton,CA,US,37.9577,-121.29078,California
209,Tracy,CA,US,37.73987,-121.42618,California
209,Turlock,CA,US,37.49466,-120.84659,California
210,San Antonio,TX,US,29.42412,-98.49363,Texas
212,New York City,NY,US,40.71427,-74.00597,New York
213,Los Angeles,CA,US,34.05223,-118.24368,California
214,Allen,TX,US,33.10317,-96.67055,Texas
214,Arlington,TX,US,32.73569,-97.10807,Texas
214,Carrollton,TX,US,32.95373,-96.89028,Texas
214,Cedar Hill,TX,US,32.58847,-96.95612,Texas
214,Coppell,TX,US,32.95457,-97.01501,Texas
214,Dallas,TX,US,32.78306,-96.80667,Texas
214,DeSoto,TX,US,32.58986,-96.85695,Texas
214,Duncanville,TX,US,32.6518,-96.90834,Texas
214,Farmers Branch,TX,US,32.92651,-96.89612,Texas
214,Flower Mound,TX,US,33.01457,-97.09696,Texas
214,Frisco,TX,US,33.15067,-96.82361,Texas
214,Garland,TX,US,32.91262,-96.63888,Texas
214,Grand Prairie,TX,US,32.74596,-96.99778,Texas
214,Irving,TX,US,32.81402,-96.94889,Texas
214,Lancaster,TX,US,32.59208,-96.75611,Texas
214,Lewisville,TX,US,33.04623,-96.99417,Texas
214,McKinney,TX,US,33.19762,-96.61527,Texas
214,Mesquite,TX,US,32.7668,-96.59916,Texas
214,Plano,TX,US,33.01984,-96.69889,Texas
214,Richardson,TX,US,32.94818,-96.72972,Texas
214,Rowlett,TX,US,32.9029,-96.56388,Texas
214,The Colony,TX,US,33.08901,-96.88639,Texas
214,University Park,TX,US,32.85013,-96.80028,Texas
214,Waxahachie,TX,US,32.38653,-96.84833,Texas
215,Levittown,PA,US,40.15511,-74.82877,Pennsylvania
215,Philadelphia,PA,US,39.95233,-75.16379,Pennsylvania
216,Brook Park,OH,US,41.39838,-81.80458,Ohio
216,East Cleveland,OH,US,41.53311,-81.57901,Ohio
216,Cleveland Heights,OH,US,41.52005,-81.55624,Ohio
216,South Euclid,OH,US,41.52311,-81.51846,Ohio
216,Garfield Heights,OH,US,41.417,-81.60596,Ohio
216,Lakewood,OH,US,41.48199,-81.79819,Ohio
216,Maple Heights,OH,US,41.41533,-81.56596,Ohio
216,Parma,OH,US,41.40477,-81.72291,Ohio
216,Shaker Heights,OH,US,41.47394,-81.53707,Ohio
217,Champaign,IL,US,40.11642,-88.24338,Illinois
217,Charleston,IL,US,39.49615,-88.17615,Illinois
217,Danville,IL,US,40.12448,-87.63002,Illinois
217,Decatur,IL,US,39.84031,-88.9548,Illinois
217,Quincy,IL,US,39.9356,-91.40987,Illinois
217,Springfield,IL,US,39.80172,-89.64371,Illinois
217,Urbana,IL,US,40.11059,-88.20727,Illinois
218,Andover,MN,US,45.2333,-93.29134,Minnesota
218,Duluth,MN,US,46.78327,-92.10658,Minnesota
218,Moorhead,MN,US,46.87386,-96.76951,Minnesota
219,East Chicago,IN,US,41.6392,-87.45476,Indiana
219,Gary,IN,US,41.59337,-87.34643,Indiana
219,Hammond,IN,US,41.58337,-87.50004,Indiana
219,Highland,IN,US,41.55365,-87.45198,Indiana
219,Hobart,IN,US,41.53226,-87.25504,Indiana
219,LaPorte,IN,US,41.6106,-86.72252,Indiana
219,Merrillville,IN,US,41.48281,-87.33281,Indiana
219,Michigan City,IN,US,41.70754,-86.89503,Indiana
219,Munster,IN,US,41.56448,-87.51254,Indiana
219,Portage,IN,US,41.57587,-87.17615,Indiana
219,Schererville,IN,US,41.47892,-87.45476,Indiana
219,Valparaiso,IN,US,41.47309,-87.06114,Indiana
220,Athens,OH,US,39.32924,-82.10126,Ohio
220,Chillicothe,OH,US,39.33312,-82.9824,Ohio
220,Delaware,OH,US,40.29867,-83.06797,Ohio
220,Lancaster,OH,US,39.71368,-82.59933,Ohio
220,Marion,OH,US,40.58867,-83.12852,Ohio
220,Newark,OH,US,40.05812,-82.40126,Ohio
220,Portsmouth,OH,US,38.73174,-82.99767,Ohio
220,Zanesville,OH,US,39.94035,-82.01319,Ohio
224,Algonquin,IL,US,42.16558,-88.29425,Illinois
224,Arlington Heights,IL,US,42.08836,-87.98063,Illinois
224,Buffalo Grove,IL,US,42.15141,-87.95979,Illinois
224,Carpentersville,IL,US,42.12114,-88.25786,Illinois
224,Des Plaines,IL,US,42.03336,-87.8834,Illinois
224,South Elgin,IL,US,41.99419,-88.2923,Illinois
224,Elk Grove Village,IL,US,42.00392,-87.97035,Illinois
224,Evanston,IL,US,42.04114,-87.69006,Illinois
224,Glenview,IL,US,42.06975,-87.78784,Illinois
224,Gurnee,IL,US,42.3703,-87.90202,Illinois
224,Highland Park,IL,US,42.18169,-87.80034,Illinois
224,Hoffman Estates,IL,US,42.04281,-88.0798,Illinois
224,Lake Forest,IL,US,42.25863,-87.84063,Illinois
224,Lake in the Hills,IL,US,42.18169,-88.33036,Illinois
224,Libertyville,IL,US,42.28308,-87.95313,Illinois
224,Morton Grove,IL,US,42.04059,-87.78256,Illinois
224,Mount Prospect,IL,US,42.06642,-87.93729,Illinois
224,Mundelein,IL,US,42.26308,-88.00397,Illinois
224,Niles,IL,US,42.01892,-87.80284,Illinois
224,North Chicago,IL,US,42.32558,-87.84118,Illinois
224,Northbrook,IL,US,42.12753,-87.82895,Illinois
224,Palatine,IL,US,42.1103,-88.03424,Illinois
224,Park Ridge,IL,US,42.01114,-87.84062,Illinois
224,Rolling Meadows,IL,US,42.08419,-88.01313,Illinois
224,Round Lake Beach,IL,US,42.37169,-88.09008,Illinois
224,Schaumburg,IL,US,42.03336,-88.08341,Illinois
224,Skokie,IL,US,42.03336,-87.73339,Illinois
224,Vernon Hills,IL,US,42.21947,-87.97952,Illinois
224,Waukegan,IL,US,42.36363,-87.84479,Illinois
224,Wheeling,IL,US,42.13919,-87.92896,Illinois
224,Wilmette,IL,US,42.07225,-87.72284,Illinois
224,Zion,IL,US,42.44613,-87.83285,Illinois
225,Baton Rouge,LA,US,30.45075,-91.15455,Louisiana
228,Biloxi,MS,US,30.39603,-88.88531,Mississippi
228,West Gulfport,MS,US,30.40409,-89.0942,Mississippi
228,Pascagoula,MS,US,30.36576,-88.55613,Mississippi
229,Albany,GA,US,31.57851,-84.15574,Georgia
229,Valdosta,GA,US,30.83334,-83.28032,Georgia
231,Muskegon,MI,US,43.23418,-86.24839,Michigan
231,Norton Shores,MI,US,43.1689,-86.26395,Michigan
231,Shelby,MI,US,42.67087,-83.03298,Michigan
234,Akron,OH,US,41.08144,-81.51901,Ohio
234,Alliance,OH,US,40.91534,-81.10593,Ohio
234,Austintown,OH,US,41.10172,-80.76452,Ohio
234,Barberton,OH,US,41.01283,-81.60512,Ohio
234,Boardman,OH,US,41.02423,-80.66285,Ohio
234,Brunswick,OH,US,41.23811,-81.8418,Ohio
234,North Canton,OH,US,40.87589,-81.40234,Ohio
234,Cuyahoga Falls,OH,US,41.13394,-81.48456,Ohio
234,Green,OH,US,40.94589,-81.48317,Ohio
234,Hudson,OH,US,41.24006,-81.44067,Ohio
234,Kent,OH,US,41.15367,-81.35789,Ohio
234,Massillon,OH,US,40.79672,-81.52151,Ohio
234,Medina,OH,US,41.13839,-81.86375,Ohio
234,Niles,OH,US,41.18284,-80.76536,Ohio
234,Stow,OH,US,41.1595,-81.44039,Ohio
234,Warren,OH,US,41.23756,-80.81842,Ohio
234,Wooster,OH,US,40.80517,-81.93646,Ohio
234,Youngstown,OH,US,41.09978,-80.64952,Ohio
239,Bonita Springs,FL,US,26.33981,-81.7787,Florida
239,Cape Coral,FL,US,26.56285,-81.94953,Florida
239,North Fort Myers,FL,US,26.66729,-81.88009,Florida
239,Golden Gate,FL,US,26.18787,-81.69509,Florida
239,Lehigh Acres,FL,US,26.62535,-81.6248,Florida
239,Naples,FL,US,26.14234,-81.79596,Florida
240,Aspen Hill,MD,US,39.07955,-77.07303,Maryland
240,North Bethesda,MD,US,39.04455,-77.11887,Maryland
240,Bowie,MD,US,38.94278,-76.73028,Maryland
240,Chillum,MD,US,38.96372,-76.99081,Maryland
240,Clinton,MD,US,38.76511,-76.89831,Maryland
240,College Park,MD,US,38.98067,-76.93692,Maryland
240,Cumberland,MD,US,39.65287,-78.76252,Maryland
240,Fairland,MD,US,39.07622,-76.95775,Maryland
240,Fort Washington,MD,US,38.70734,-77.02303,Maryland
240,Frederick,MD,US,39.41427,-77.41054,Maryland
240,Gaithersburg,MD,US,39.14344,-77.20137,Maryland
240,Germantown,MD,US,39.17316,-77.27165,Maryland
240,Greenbelt,MD,US,39.00455,-76.87553,Maryland
240,Hagerstown,MD,US,39.64176,-77.71999,Maryland
240,Landover,MD,US,38.934,-76.89664,Maryland
240,Montgomery Village,MD,US,39.17677,-77.19526,Maryland
240,South Laurel,MD,US,39.06983,-76.85025,Maryland
240,North Potomac,MD,US,39.08289,-77.26498,Maryland
240,Olney,MD,US,39.15316,-77.06692,Maryland
240,Potomac,MD,US,39.01817,-77.20859,Maryland
240,Rockville,MD,US,39.084,-77.15276,Maryland
240,Silver Spring,MD,US,38.99067,-77.02609,Maryland
240,Saint Charles,MD,US,38.60317,-76.93858,Maryland
240,Suitland,MD,US,38.84872,-76.92386,Maryland
240,Waldorf,MD,US,38.62456,-76.93914,Maryland
240,White Oak,MD,US,39.03983,-76.99303,Maryland
248,West Bloomfield Township,MI,US,42.56891,-83.38356,Michigan
248,Farmington Hills,MI,US,42.48531,-83.37716,Michigan
248,Ferndale,MI,US,42.46059,-83.13465,Michigan
248,Madison Heights,MI,US,42.48587,-83.1052,Michigan
248,Novi,MI,US,42.48059,-83.47549,Michigan
248,Oak Park,MI,US,42.45948,-83.18271,Michigan
248,Pontiac,MI,US,42.63892,-83.29105,Michigan
248,Rochester Hills,MI,US,42.65837,-83.14993,Michigan
248,Royal Oak,MI,US,42.48948,-83.14465,Michigan
248,Southfield,MI,US,42.47337,-83.22187,Michigan
248,Troy,MI,US,42.60559,-83.14993,Michigan
248,Waterford,MI,US,42.69303,-83.41181,Michigan
251,Mobile,AL,US,30.69436,-88.04305,Alabama
251,Prichard,AL,US,30.7388,-88.07889,Alabama
252,Greenville,NC,US,35.61266,-77.36635,North Carolina
252,Havelock,NC,US,34.87905,-76.90133,North Carolina
252,Kinston,NC,US,35.26266,-77.58164,North Carolina
252,New Bern,NC,US,35.10849,-77.04411,North Carolina
252,Rocky Mount,NC,US,35.93821,-77.79053,North Carolina
252,Wilson,NC,US,35.72127,-77.91554,North Carolina
253,Auburn,WA,US,47.30732,-122.22845,Washington
253,East Hill-Meridian,WA,US,47.41052,-122.17369,Washington
253,Federal Way,WA,US,47.32232,-122.31262,Washington
253,Lakewood,WA,US,47.17176,-122.51846,Washington
253,Parkland,WA,US,47.15538,-122.43401,Washington
253,Puyallup,WA,US,47.18538,-122.2929,Washington
253,South Hill,WA,US,47.14121,-122.27012,Washington
253,Spanaway,WA,US,47.10399,-122.43457,Washington
253,Tacoma,WA,US,47.25288,-122.44429,Washington
253,University Place,WA,US,47.23565,-122.5504,Washington
254,Copperas Cove,TX,US,31.12406,-97.90308,Texas
254,Fort Hood,TX,US,31.13489,-97.77561,Texas
254,Killeen,TX,US,31.11712,-97.7278,Texas
254,Temple,TX,US,31.09823,-97.34278,Texas
254,Waco,TX,US,31.54933,-97.14667,Texas
256,Anniston,AL,US,33.65983,-85.83163,Alabama
256,Decatur,AL,US,34.60593,-86.98334,Alabama
256,Florence,AL,US,34.79981,-87.67725,Alabama
256,Gadsden,AL,US,34.01426,-86.00664,Alabama
256,Huntsville,AL,US,34.73037,-86.5861,Alabama
256,Madison,AL,US,34.69926,-86.74833,Alabama
260,Fort Wayne,IN,US,41.1306,-85.12886,Indiana
262,Brookfield,WI,US,43.06057,-88.10648,Wisconsin
262,Caledonia,WI,US,42.8078,-87.92425,Wisconsin
262,Kenosha,WI,US,42.58474,-87.82119,Wisconsin
262,Menomonee Falls,WI,US,43.1789,-88.11731,Wisconsin
262,Mequon,WI,US,43.2364,-87.98453,Wisconsin
262,Muskego,WI,US,42.90585,-88.13898,Wisconsin
262,New Berlin,WI,US,42.9764,-88.10842,Wisconsin
262,Racine,WI,US,42.72613,-87.78285,Wisconsin
262,Waukesha,WI,US,43.01168,-88.23148,Wisconsin
262,West Bend,WI,US,43.42528,-88.18343,Wisconsin
267,Levittown,PA,US,40.15511,-74.82877,Pennsylvania
267,Philadelphia,PA,US,39.95233,-75.16379,Pennsylvania
269,Battle Creek,MI,US,42.3173,-85.17816,Michigan
269,Kalamazoo,MI,US,42.29171,-85.58723,Michigan
269,Portage,MI,US,42.20115,-85.58,Michigan
270,Bowling Green,KY,US,36.99032,-86.4436,Kentucky
270,Elizabethtown,KY,US,37.69395,-85.85913,Kentucky
270,Henderson,KY,US,37.83615,-87.59001,Kentucky
270,Hopkinsville,KY,US,36.86561,-87.49117,Kentucky
270,Owensboro,KY,US,37.77422,-87.11333,Kentucky
270,Paducah,KY,US,37.08339,-88.60005,Kentucky
270,Radcliff,KY,US,37.84035,-85.94913,Kentucky
272,Back Mountain,PA,US,41.33591,-75.99631,Pennsylvania
272,Hazleton,PA,US,40.95842,-75.97465,Pennsylvania
272,Scranton,PA,US,41.40916,-75.6649,Pennsylvania
272,Wilkes-Barre,PA,US,41.24591,-75.88131,Pennsylvania
272,Williamsport,PA,US,41.24119,-77.00108,Pennsylvania
276,Richmond,VA,US,37.55376,-77.46026,Virginia
281,Alvin,TX,US,29.42385,-95.2441,Texas
281,Atascocita,TX,US,29.99883,-95.1766,Texas
281,Baytown,TX,US,29.7355,-94.97743,Texas
281,Channelview,TX,US,29.77606,-95.11465,Texas
281,Cloverleaf,TX,US,29.77828,-95.17188,Texas
281,Deer Park,TX,US,29.70523,-95.12382,Texas
281,Friendswood,TX,US,29.5294,-95.20104,Texas
281,South Houston,TX,US,29.66301,-95.23549,Texas
281,La Porte,TX,US,29.66578,-95.01937,Texas
281,League City,TX,US,29.50745,-95.09493,Texas
281,Mission Bend,TX,US,29.69384,-95.66495,Texas
281,Missouri City,TX,US,29.61857,-95.53772,Texas
281,Pasadena,TX,US,29.69106,-95.2091,Texas
281,Pearland,TX,US,29.56357,-95.28605,Texas
281,Rosenberg,TX,US,29.55718,-95.80856,Texas
281,Spring,TX,US,30.07994,-95.41716,Texas
281,Sugar Land,TX,US,29.61968,-95.63495,Texas
281,The Woodlands,TX,US,30.15799,-95.48938,Texas
301,Aspen Hill,MD,US,39.07955,-77.07303,Maryland
301,North Bethesda,MD,US,39.04455,-77.11887,Maryland
301,Bowie,MD,US,38.94278,-76.73028,Maryland
301,Chillum,MD,US,38.96372,-76.99081,Maryland
301,Clinton,MD,US,38.76511,-76.89831,Maryland
301,College Park,MD,US,38.98067,-76.93692,Maryland
301,Cumberland,MD,US,39.65287,-78.76252,Maryland
301,Fairland,MD,US,39.07622,-76.95775,Maryland
301,Fort Washington,MD,US,38.70734,-77.02303,Maryland
301,Frederick,MD,US,39.41427,-77.41054,Maryland
301,Gaithersburg,MD,US,39.14344,-77.20137,Maryland
301,Germantown,MD,US,39.17316,-77.27165,Maryland
301,Greenbelt,MD,US,39.00455,-76.87553,Maryland
301,Hagerstown,MD,US,39.64176,-77.71999,Maryland
301,Landover,MD,US,38.934,-76.89664,Maryland
301,Montgomery Village,MD,US,39.17677,-77.19526,Maryland
301,South Laurel,MD,US,39.06983,-76.85025,Maryland
301,North Potomac,MD,US,39.08289,-77.26498,Maryland
301,Olney,MD,US,39.15316,-77.06692,Maryland
301,Potomac,MD,US,39.01817,-77.20859,Maryland
301,Rockville,MD,US,39.084,-77.15276,Maryland
301,Silver Spring,MD,US,38.99067,-77.02609,Maryland
301,Saint Charles,MD,US,38.60317,-76.93858,Maryland
301,Suitland,MD,US,38.84872,-76.92386,Maryland
301,Waldorf,MD,US,38.62456,-76.93914,Maryland
301,White Oak,MD,US,39.03983,-76.99303,Maryland
302,Dover,DE,US,39.15817,-75.52437,Delaware
302,Newark,DE,US,39.68372,-75.74966,Delaware
302,Wilmington,DE,US,39.74595,-75.54659,Delaware
303,Arvada,CO,US,39.80276,-105.08748,Colorado
303,Aurora,CO,US,39.72943,-104.83192,Colorado
303,Boulder,CO,US,40.01499,-105.27055,Colorado
303,Brighton,CO,US,39.98526,-104.82053,Colorado
303,Broomfield,CO,US,39.92054,-105.08665,Colorado
303,Castle Rock,CO,US,39.37221,-104.85609,Colorado
303,Castlewood,CO,US,39.58471,-104.90109,Colorado
303,Columbine,CO,US,39.58777,-105.06943,Colorado
303,Commerce City,CO,US,39.80832,-104.93387,Colorado
303,Denver,CO,US,39.73915,-104.9847,Colorado
303,Englewood,CO,US,39.64777,-104.98776,Colorado
303,Highlands Ranch,CO,US,39.55388,-104.96943,Colorado
303,Ken Caryl,CO,US,39.57582,-105.11221,Colorado
303,Lafayette,CO,US,39.9936,-105.08971,Colorado
303,Lakewood,CO,US,39.70471,-105.08137,Colorado
303,Littleton,CO,US,39.61332,-105.01665,Colorado
303,Longmont,CO,US,40.16721,-105.10193,Colorado
303,Loveland,CO,US,40.39776,-105.07498,Colorado
303,Northglenn,CO,US,39.88554,-104.9872,Colorado
303,Parker,CO,US,39.5186,-104.76136,Colorado
303,Southglenn,CO,US,39.58721,-104.95276,Colorado
303,Thornton,CO,US,39.86804,-104.97192,Colorado
303,Westminster,CO,US,39.83665,-105.0372,Colorado
303,Wheat Ridge,CO,US,39.7661,-105.07721,Colorado
304,South Charleston,WV,US,38.36843,-81.69957,West Virginia
304,Huntington,WV,US,38.41925,-82.44515,West Virginia
304,Morgantown,WV,US,39.62953,-79.9559,West Virginia
304,Parkersburg,WV,US,39.26674,-81.56151,West Virginia
304,Weirton,WV,US,40.41896,-80.58952,West Virginia
304,Wheeling,WV,US,40.06396,-80.72091,West Virginia
305,Aventura,FL,US,25.95648,-80.13921,Florida
305,Carol City,FL,US,25.94065,-80.2456,Florida
305,Coral Gables,FL,US,25.72149,-80.26838,Florida
305,Coral Terrace,FL,US,25.74593,-80.3045,Florida
305,Country Club,FL,US,25.94815,-80.317,Florida
305,Cutler Ridge,FL,US,25.58066,-80.34672,Florida
305,Doral,FL,US,25.81954,-80.35533,Florida
305,Golden Glades,FL,US,25.91176,-80.20033,Florida
305,Hialeah,FL,US,25.8576,-80.27811,Florida
305,Homestead,FL,US,25.46872,-80.47756,Florida
305,Kendale Lakes,FL,US,25.70816,-80.407,Florida
305,Kendall West,FL,US,25.7065,-80.4388,Florida
305,Key West,FL,US,24.55524,-81.78163,Florida
305,Leisure City,FL,US,25.49539,-80.42922,Florida
305,West Miami,FL,US,25.76343,-80.29616,Florida
305,North Miami Beach,FL,US,25.93315,-80.16255,Florida
305,Miami Lakes,FL,US,25.90871,-80.30866,Florida
305,Miramar,FL,US,25.98731,-80.23227,Florida
305,Norland,FL,US,25.94898,-80.21227,Florida
305,North Miami,FL,US,25.89009,-80.18671,Florida
305,Richmond West,FL,US,25.6105,-80.42971,Florida
305,Richmond Heights,FL,US,25.63149,-80.36894,Florida
305,South Miami Heights,FL,US,25.59761,-80.38061,Florida
305,Tamiami,FL,US,25.75871,-80.39839,Florida
305,West Little River,FL,US,25.85704,-80.23699,Florida
305,Westchester,FL,US,25.75482,-80.32727,Florida
307,Casper,WY,US,42.86663,-106.31308,Wyoming
307,Cheyenne,WY,US,41.13998,-104.82025,Wyoming
307,Gillette,WY,US,44.29109,-105.50222,Wyoming
307,Laramie,WY,US,41.31137,-105.5911,Wyoming
308,Grand Island,NE,US,40.92501,-98.34201,Nebraska
308,Kearney,NE,US,40.69946,-99.08148,Nebraska
308,North Platte,NE,US,41.12389,-100.76542,Nebraska
309,Bloomington,IL,US,40.4842,-88.99369,Illinois
309,East Moline,IL,US,41.50087,-90.4443,Illinois
309,East Peoria,IL,US,40.66615,-89.5801,Illinois
309,Galesburg,IL,US,40.94782,-90.37124,Illinois
309,Moline,IL,US,41.5067,-90.51513,Illinois
309,Normal,IL,US,40.5142,-88.99063,Illinois
309,Pekin,IL,US,40.56754,-89.64066,Illinois
309,Peoria,IL,US,40.69365,-89.58899,Illinois
309,Rock Island,IL,US,41.50948,-90.57875,Illinois
310,Beverly Hills,CA,US,34.07362,-118.40036,California
310,West Carson,CA,US,33.82168,-118.29257,California
310,Culver City,CA,US,34.02112,-118.39647,California
310,Gardena,CA,US,33.88835,-118.30896,California
310,Hawthorne,CA,US,33.9164,-118.35257,California
310,Inglewood,CA,US,33.96168,-118.35313,California
310,Lawndale,CA,US,33.88724,-118.35257,California
310,Lennox,CA,US,33.93807,-118.35258,California
310,Lomita,CA,US,33.79224,-118.31507,California
310,Lynwood,CA,US,33.93029,-118.21146,California
310,Manhattan Beach,CA,US,33.88474,-118.41091,California
310,Rancho Palos Verdes,CA,US,33.74446,-118.38702,California
310,Redondo Beach,CA,US,33.84918,-118.38841,California
310,Santa Monica,CA,US,34.01945,-118.49119,California
310,Torrance,CA,US,33.83585,-118.34063,California
312,West Chicago,IL,US,41.88475,-88.20396,Illinois
313,Allen Park,MI,US,42.25754,-83.21104,Michigan
313,Dearborn,MI,US,42.32226,-83.17631,Michigan
313,Dearborn Heights,MI,US,42.33698,-83.27326,Michigan
313,Detroit,MI,US,42.33143,-83.04575,Michigan
313,Hamtramck,MI,US,42.39282,-83.04964,Michigan
313,Inkster,MI,US,42.2942,-83.30993,Michigan
313,Lincoln Park,MI,US,42.25059,-83.17854,Michigan
313,Redford,MI,US,42.38337,-83.2966,Michigan
313,Taylor,MI,US,42.24087,-83.26965,Michigan
314,Kirkwood,MO,US,38.58339,-90.40678,Missouri
314,Maryland Heights,MO,US,38.71311,-90.42984,Missouri
314,Mehlville,MO,US,38.50839,-90.32289,Missouri
314,Oakville,MO,US,38.47005,-90.30456,Missouri
314,Spanish Lake,MO,US,38.78783,-90.21594,Missouri
314,St. Louis,MO,US,38.62727,-90.19789,Missouri
314,University City,MO,US,38.65588,-90.30928,Missouri
314,Webster Groves,MO,US,38.59255,-90.35734,Missouri
314,Affton,MO,US,38.55061,-90.33317,Missouri
314,Ferguson,MO,US,38.74422,-90.30539,Missouri
314,Florissant,MO,US,38.78922,-90.32261,Missouri
314,Hazelwood,MO,US,38.77144,-90.37095,Missouri
315,Auburn,NY,US,42.93173,-76.56605,New York
315,Rome,NY,US,43.21285,-75.45573,New York
315,Syracuse,NY,US,43.04812,-76.14742,New York
315,Utica,NY,US,43.1009,-75.23266,New York
315,Watertown,NY,US,43.97478,-75.91076,New York
316,Wichita,KS,US,37.69224,-97.33754,Kansas
317,Carmel,IN,US,39.97837,-86.11804,Indiana
317,Fishers,IN,US,39.95559,-86.01387,Indiana
317,Greenwood,IN,US,39.61366,-86.10665,Indiana
317,Indianapolis,IN,US,39.76838,-86.15804,Indiana
317,Lawrence,IN,US,39.83865,-86.02526,Indiana
317,Noblesville,IN,US,40.04559,-86.0086,Indiana
318,Alexandria,LA,US,31.31129,-92.44514,Louisiana
318,Bossier City,LA,US,32.51599,-93.73212,Louisiana
318,West Monroe,LA,US,32.51848,-92.14764,Louisiana
318,Ruston,LA,US,32.52321,-92.63793,Louisiana
318,Shreveport,LA,US,32.52515,-93.75018,Louisiana
319,Burlington,IA,US,40.80754,-91.11292,Iowa
319,Cedar Falls,IA,US,42.52776,-92.44547,Iowa
319,Cedar Rapids,IA,US,42.00833,-91.64407,Iowa
319,Iowa City,IA,US,41.66113,-91.53017,Iowa
319,Marion,IA,US,42.03417,-91.59768,Iowa
319,Waterloo,IA,US,42.49276,-92.34296,Iowa
320,Saint Cloud,MN,US,45.5608,-94.16249,Minnesota
321,Altamonte Springs,FL,US,28.66111,-81.36562,Florida
321,South Apopka,FL,US,28.66194,-81.50952,Florida
321,Casselberry,FL,US,28.67778,-81.32785,Florida
321,Kissimmee,FL,US,28.30468,-81.41667,Florida
321,West Melbourne,FL,US,28.07168,-80.65339,Florida
321,Merritt Island,FL,US,28.53917,-80.672,Florida
321,Oak Ridge,FL,US,28.47112,-81.42452,Florida
321,Ocoee,FL,US,28.56917,-81.54396,Florida
321,Orlando,FL,US,28.53834,-81.37924,Florida
321,Oviedo,FL,US,28.67,-81.20812,Florida
321,Palm Bay,FL,US,28.03446,-80.58866,Florida
321,Pine Hills,FL,US,28.55778,-81.4534,Florida
321,Rockledge,FL,US,28.35084,-80.72533,Florida
321,Sanford,FL,US,28.80055,-81.27312,Florida
321,Saint Cloud,FL,US,28.2489,-81.28118,Florida
321,Titusville,FL,US,28.61222,-80.80755,Florida
321,University Park,FL,US,25.74649,-80.36755,Florida
321,Wekiwa Springs,FL,US,28.69861,-81.42563,Florida
321,Winter Park,FL,US,28.6,-81.33924,Florida
321,Winter Springs,FL,US,28.69889,-81.30812,Florida
323,Bell,CA,US,33.97751,-118.18702,California
323,Bell Gardens,CA,US,33.96529,-118.15146,California
323,Cudahy,CA,US,33.96057,-118.18535,California
323,East Los Angeles,CA,US,34.0239,-118.17202,California
323,Florence-Graham,CA,US,33.96772,-118.24438,California
323,Huntington Park,CA,US,33.98168,-118.22507,California
323,Maywood,CA,US,33.98668,-118.18535,California
323,Montebello,CA,US,34.00946,-118.10535,California
323,South Gate,CA,US,33.95474,-118.21202,California
323,West Hollywood,CA,US,34.09001,-118.36174,California
323,Westmont,CA,US,33.9414,-118.3023,California
325,Abilene,TX,US,32.44874,-99.73314,Texas
325,San Angelo,TX,US,31.46377,-100.43704,Texas
330,Akron,OH,US,41.08144,-81.51901,Ohio
330,Alliance,OH,US,40.91534,-81.10593,Ohio
330,Austintown,OH,US,41.10172,-80.76452,Ohio
330,Barberton,OH,US,41.01283,-81.60512,Ohio
330,Boardman,OH,US,41.02423,-80.66285,Ohio
330,Brunswick,OH,US,41.23811,-81.8418,Ohio
330,North Canton,OH,US,40.87589,-81.40234,Ohio
330,Cuyahoga Falls,OH,US,41.13394,-81.48456,Ohio
330,Green,OH,US,40.94589,-81.48317,Ohio
330,Hudson,OH,US,41.24006,-81.44067,Ohio
330,Kent,OH,US,41.15367,-81.35789,Ohio
330,Massillon,OH,US,40.79672,-81.52151,Ohio
330,Medina,OH,US,41.13839,-81.86375,Ohio
330,Niles,OH,US,41.18284,-80.76536,Ohio
330,Stow,OH,US,41.1595,-81.44039,Ohio
330,Warren,OH,US,41.23756,-80.81842,Ohio
330,Wooster,OH,US,40.80517,-81.93646,Ohio
330,Youngstown,OH,US,41.09978,-80.64952,Ohio
331,Addison,IL,US,41.9317,-87.98896,Illinois
331,North Aurora,IL,US,41.80614,-88.3273,Illinois
331,Bartlett,IL,US,41.99503,-88.18563,Illinois
331,Batavia,IL,US,41.85003,-88.31257,Illinois
331,Bensenville,IL,US,41.95503,-87.94007,Illinois
331,Bloomingdale,IL,US,41.95753,-88.0809,Illinois
331,Bolingbrook,IL,US,41.69864,-88.0684,Illinois
331,Carol Stream,IL,US,41.91253,-88.13479,Illinois
331,Darien,IL,US,41.75198,-87.97395,Illinois
331,Downers Grove,IL,US,41.80892,-88.01117,Illinois
331,Elmhurst,IL,US,41.89947,-87.94034,Illinois
331,Glen Ellyn,IL,US,41.87753,-88.06701,Illinois
331,Glendale Heights,IL,US,41.91031,-88.07174,Illinois
331,Hanover Park,IL,US,41.99947,-88.14507,Illinois
331,Lisle,IL,US,41.80114,-88.07479,Illinois
331,Lombard,IL,US,41.88003,-88.00784,Illinois
331,Naperville,IL,US,41.78586,-88.14729,Illinois
331,Roselle,IL,US,41.98475,-88.07979,Illinois
331,Saint Charles,IL,US,41.91419,-88.30869,Illinois
331,Streamwood,IL,US,42.02558,-88.17841,Illinois
331,Villa Park,IL,US,41.88975,-87.98895,Illinois
331,West Chicago,IL,US,41.88475,-88.20396,Illinois
331,Westmont,IL,US,41.79586,-87.97562,Illinois
331,Wheaton,IL,US,41.86614,-88.10701,Illinois
331,Woodridge,IL,US,41.74697,-88.05034,Illinois
334,Auburn,AL,US,32.60986,-85.48078,Alabama
334,Dothan,AL,US,31.22323,-85.39049,Alabama
334,Enterprise,AL,US,31.31517,-85.85522,Alabama
334,Montgomery,AL,US,32.36681,-86.29997,Alabama
334,Opelika,AL,US,32.64541,-85.37828,Alabama
334,Phenix City,AL,US,32.47098,-85.00077,Alabama
334,Prattville,AL,US,32.46402,-86.4597,Alabama
334,Selma,AL,US,32.40736,-87.0211,Alabama
336,Asheboro,NC,US,35.70791,-79.81364,North Carolina
336,Burlington,NC,US,36.09569,-79.4378,North Carolina
336,Greensboro,NC,US,36.07264,-79.79198,North Carolina
336,High Point,NC,US,35.95569,-80.00532,North Carolina
336,Winston-Salem,NC,US,36.09986,-80.24422,North Carolina
337,Lafayette,LA,US,30.22409,-92.01984,Louisiana
337,Lake Charles,LA,US,30.21309,-93.2044,Louisiana
337,New Iberia,LA,US,30.00354,-91.81873,Louisiana
337,Opelousas,LA,US,30.53353,-92.08151,Louisiana
337,Sulphur,LA,US,30.23659,-93.37738,Louisiana
339,Arlington,MA,US,42.41537,-71.15644,Massachusetts
339,Braintree,MA,US,42.22232,-70.99949,Massachusetts
339,Burlington,MA,US,42.50482,-71.19561,Massachusetts
339,Dedham,MA,US,42.24177,-71.16616,Massachusetts
339,Lexington,MA,US,42.44732,-71.2245,Massachusetts
339,Lynn,MA,US,42.46676,-70.94949,Massachusetts
339,Malden,MA,US,42.4251,-71.06616,Massachusetts
339,Marblehead,MA,US,42.5001,-70.85783,Massachusetts
339,Medford,MA,US,42.41843,-71.10616,Massachusetts
339,Melrose,MA,US,42.45843,-71.06616,Massachusetts
339,Needham,MA,US,42.28343,-71.23283,Massachusetts
339,Norwood,MA,US,42.19454,-71.1995,Massachusetts
339,Randolph,MA,US,42.1626,-71.04116,Massachusetts
339,Reading,MA,US,42.52565,-71.09533,Massachusetts
339,Revere,MA,US,42.40843,-71.01199,Massachusetts
339,Saugus,MA,US,42.46482,-71.01005,Massachusetts
339,Stoneham,MA,US,42.4801,-71.0995,Massachusetts
339,Wakefield,MA,US,42.50648,-71.07283,Massachusetts
339,Waltham,MA,US,42.37649,-71.23561,Massachusetts
339,Wellesley,MA,US,42.29649,-71.29256,Massachusetts
339,Weymouth,MA,US,42.22093,-70.93977,Massachusetts
339,Winchester,MA,US,42.45232,-71.137,Massachusetts
339,Woburn,MA,US,42.47926,-71.15228,Massachusetts
346,Alvin,TX,US,29.42385,-95.2441,Texas
346,Atascocita,TX,US,29.99883,-95.1766,Texas
346,Baytown,TX,US,29.7355,-94.97743,Texas
346,Channelview,TX,US,29.77606,-95.11465,Texas
346,Cloverleaf,TX,US,29.77828,-95.17188,Texas
346,Deer Park,TX,US,29.70523,-95.12382,Texas
346,Friendswood,TX,US,29.5294,-95.20104,Texas
346,South Houston,TX,US,29.66301,-95.23549,Texas
346,La Porte,TX,US,29.66578,-95.01937,Texas
346,League City,TX,US,29.50745,-95.09493,Texas
346,Mission Bend,TX,US,29.69384,-95.66495,Texas
346,Missouri City,TX,US,29.61857,-95.53772,Texas
346,Pasadena,TX,US,29.69106,-95.2091,Texas
346,Pearland,TX,US,29.56357,-95.28605,Texas
346,Rosenberg,TX,US,29.55718,-95.80856,Texas
346,Spring,TX,US,30.07994,-95.41716,Texas
346,Sugar Land,TX,US,29.61968,-95.63495,Texas
346,The Woodlands,TX,US,30.15799,-95.48938,Texas
347,The Bronx,NY,US,40.84985,-73.86641,New York
347,Brooklyn,NY,US,40.6501,-73.94958,New York
347,New York City,NY,US,40.71427,-74.00597,New York
347,Borough of Queens,NY,US,40.68149,-73.83652,New York
347,Staten Island,NY,US,40.56233,-74.13986,New York
351,Beverly,MA,US,42.55843,-70.88005,Massachusetts
351,Chelmsford,MA,US,42.59981,-71.36728,Massachusetts
351,Danvers,MA,US,42.57509,-70.93005,Massachusetts
351,Fitchburg,MA,US,42.58342,-71.8023,Massachusetts
351,Gardner,MA,US,42.57509,-71.99813,Massachusetts
351,Gloucester,MA,US,42.61593,-70.66199,Massachusetts
351,Haverhill,MA,US,42.7762,-71.07728,Massachusetts
351,Lawrence,MA,US,42.70704,-71.16311,Massachusetts
351,Leominster,MA,US,42.52509,-71.75979,Massachusetts
351,Lowell,MA,US,42.63342,-71.31617,Massachusetts
351,Methuen,MA,US,42.7262,-71.19089,Massachusetts
351,South Peabody,MA,US,42.50982,-70.94949,Massachusetts
351,Salem,MA,US,42.51954,-70.89672,Massachusetts
351,Wilmington,MA,US,42.54648,-71.17367,Massachusetts
352,Gainesville,FL,US,29.65163,-82.32483,Florida
352,Oakland Park,FL,US,26.17231,-80.13199,Florida
352,Ocala,FL,US,29.1872,-82.14009,Florida
352,Spring Hill,FL,US,28.47688,-82.52546,Florida
360,Bellingham,WA,US,48.75955,-122.48822,Washington
360,Bremerton,WA,US,47.56732,-122.63264,Washington
360,Lacey,WA,US,47.03426,-122.82319,Washington
360,Longview,WA,US,46.13817,-122.93817,Washington
360,Marysville,WA,US,48.05176,-122.17708,Washington
360,Mount Vernon,WA,US,48.42122,-122.33405,Washington
360,Olympia,WA,US,47.03787,-122.9007,Washington
360,Vancouver,WA,US,45.63873,-122.66149,Washington
361,Corpus Christi,TX,US,27.80058,-97.39638,Texas
361,Kingsville,TX,US,27.51587,-97.85611,Texas
361,Victoria,TX,US,28.80527,-97.0036,Texas
364,Bowling Green,KY,US,36.99032,-86.4436,Kentucky
364,Elizabethtown,KY,US,37.69395,-85.85913,Kentucky
364,Henderson,KY,US,37.83615,-87.59001,Kentucky
364,Hopkinsville,KY,US,36.86561,-87.49117,Kentucky
364,Owensboro,KY,US,37.77422,-87.11333,Kentucky
364,Paducah,KY,US,37.08339,-88.60005,Kentucky
364,Radcliff,KY,US,37.84035,-85.94913,Kentucky
385,American Fork,UT,US,40.3769,-111.79576,Utah
385,West Bountiful,UT,US,40.89383,-111.90188,Utah
385,Clearfield,UT,US,41.11078,-112.02605,Utah
385,Cottonwood Heights,UT,US,40.61967,-111.81021,Utah
385,Draper,UT,US,40.52467,-111.86382,Utah
385,East Millcreek,UT,US,40.69995,-111.81049,Utah
385,Kaysville,UT,US,41.03522,-111.93855,Utah
385,Kearns,UT,US,40.65995,-111.99633,Utah
385,Layton,UT,US,41.06022,-111.97105,Utah
385,Magna,UT,US,40.70911,-112.10161,Utah
385,Midvale,UT,US,40.61106,-111.89994,Utah
385,Millcreek,UT,US,40.68689,-111.87549,Utah
385,Murray,UT,US,40.66689,-111.88799,Utah
385,South Ogden,UT,US,41.19189,-111.97133,Utah
385,Orem,UT,US,40.2969,-111.69465,Utah
385,Pleasant Grove,UT,US,40.36412,-111.73854,Utah
385,Provo,UT,US,40.23384,-111.65853,Utah
385,Riverton,UT,US,40.52189,-111.9391,Utah
385,Roy,UT,US,41.16161,-112.02633,Utah
385,Salt Lake City,UT,US,40.76078,-111.89105,Utah
385,Sandy City,UT,US,40.59161,-111.8841,Utah
385,South Jordan,UT,US,40.56217,-111.92966,Utah
385,South Salt Lake,UT,US,40.71884,-111.88827,Utah
385,Spanish Fork,UT,US,40.11496,-111.65492,Utah
385,Springville,UT,US,40.16523,-111.61075,Utah
385,Taylorsville,UT,US,40.66772,-111.93883,Utah
385,West Jordan,UT,US,40.60967,-111.9391,Utah
385,West Valley City,UT,US,40.69161,-112.00105,Utah
386,Daytona Beach,FL,US,29.21081,-81.02283,Florida
386,DeLand,FL,US,29.02832,-81.30312,Florida
386,Deltona,FL,US,28.90054,-81.26367,Florida
386,New Smyrna Beach,FL,US,29.02582,-80.927,Florida
386,Ormond Beach,FL,US,29.28581,-81.05589,Florida
386,Palm Coast,FL,US,29.58497,-81.20784,Florida
386,Port Orange,FL,US,29.13832,-80.99561,Florida
401,Bristol,RI,US,41.67705,-71.26616,Rhode Island
401,Cranston,RI,US,41.77982,-71.43728,Rhode Island
401,East Providence,RI,US,41.81371,-71.37005,Rhode Island
401,Newport East,RI,US,41.51579,-71.28752,Rhode Island
401,North Providence,RI,US,41.8501,-71.46617,Rhode Island
401,Pawtucket,RI,US,41.87871,-71.38256,Rhode Island
401,Providence,RI,US,41.82399,-71.41283,Rhode Island
401,West Warwick,RI,US,41.69689,-71.52194,Rhode Island
401,Woonsocket,RI,US,42.00288,-71.51478,Rhode Island
402,Bellevue,NE,US,41.13667,-95.89084,Nebraska
402,Columbus,NE,US,41.42973,-97.36838,Nebraska
402,Fremont,NE,US,41.43333,-96.49808,Nebraska
402,Hastings,NE,US,40.58612,-98.38839,Nebraska
402,Lincoln,NE,US,40.8,-96.66696,Nebraska
402,Norfolk,NE,US,42.02834,-97.417,Nebraska
402,Omaha,NE,US,41.25861,-95.93779,Nebraska
404,Atlanta,GA,US,33.749,-84.38798,Georgia
404,Candler-McAfee,GA,US,33.72672,-84.27246,Georgia
404,College Park,GA,US,33.65344,-84.44937,Georgia
404,East Point,GA,US,33.67955,-84.43937,Georgia
404,Forest Park,GA,US,33.62205,-84.36909,Georgia
404,Sandy Springs,GA,US,33.92427,-84.37854,Georgia
404,Tucker,GA,US,33.85455,-84.21714,Georgia
405,Bethany,OK,US,35.51867,-97.63226,Oklahoma
405,Del City,OK,US,35.44201,-97.44087,Oklahoma
405,Edmond,OK,US,35.65283,-97.4781,Oklahoma
405,Midwest City,OK,US,35.44951,-97.3967,Oklahoma
405,Moore,OK,US,35.33951,-97.4867,Oklahoma
405,Norman,OK,US,35.22257,-97.43948,Oklahoma
405,Oklahoma City,OK,US,35.46756,-97.51643,Oklahoma
405,Shawnee,OK,US,35.32729,-96.9253,Oklahoma
405,Stillwater,OK,US,36.11561,-97.05837,Oklahoma
405,Yukon,OK,US,35.50672,-97.76254,Oklahoma
406,Billings,MT,US,45.78329,-108.50069,Montana
406,Bozeman,MT,US,45.67965,-111.03856,Montana
406,Butte,MT,US,46.00382,-112.53474,Montana
406,Great Falls,MT,US,47.50024,-111.30081,Montana
406,Helena,MT,US,46.59271,-112.03611,Montana
406,Missoula,MT,US,46.87215,-113.994,Montana
407,Altamonte Springs,FL,US,28.66111,-81.36562,Florida
407,South Apopka,FL,US,28.66194,-81.50952,Florida
407,Casselberry,FL,US,28.67778,-81.32785,Florida
407,Kissimmee,FL,US,28.30468,-81.41667,Florida
407,Oak Ridge,FL,US,28.47112,-81.42452,Florida
407,Ocoee,FL,US,28.56917,-81.54396,Florida
407,Orlando,FL,US,28.53834,-81.37924,Florida
407,Oviedo,FL,US,28.67,-81.20812,Florida
407,Pine Hills,FL,US,28.55778,-81.4534,Florida
407,Sanford,FL,US,28.80055,-81.27312,Florida
407,Saint Cloud,FL,US,28.2489,-81.28118,Florida
407,University Park,FL,US,25.74649,-80.36755,Florida
407,Wekiwa Springs,FL,US,28.69861,-81.42563,Florida
407,Winter Park,FL,US,28.6,-81.33924,Florida
407,Winter Springs,FL,US,28.69889,-81.30812,Florida
408,Campbell,CA,US,37.28717,-121.94996,California
408,Gilroy,CA,US,37.00578,-121.56828,California
408,Los Gatos,CA,US,37.22661,-121.97468,California
408,Milpitas,CA,US,37.42827,-121.90662,California
408,Morgan Hill,CA,US,37.1305,-121.65439,California
408,San Jose,CA,US,37.33939,-121.89496,California
408,Santa Clara,CA,US,37.35411,-121.95524,California
408,Saratoga,CA,US,37.26383,-122.02301,California
408,Sunnyvale,CA,US,37.36883,-122.03635,California
409,Beaumont,TX,US,30.08605,-94.10185,Texas
409,Galveston,TX,US,29.30135,-94.7977,Texas
409,Port Arthur,TX,US,29.88519,-93.94233,Texas
409,Texas City,TX,US,29.38385,-94.9027,Texas
410,Annapolis,MD,US,38.97845,-76.49218,Maryland
410,Arbutus,MD,US,39.25455,-76.69997,Maryland
410,Arnold,MD,US,39.03206,-76.50274,Maryland
410,Baltimore,MD,US,39.29038,-76.61219,Maryland
410,Bel Air North,MD,US,39.55429,-76.37309,Maryland
410,Bel Air South,MD,US,39.50506,-76.31977,Maryland
410,Carney,MD,US,39.39427,-76.52358,Maryland
410,Catonsville,MD,US,39.27205,-76.73192,Maryland
410,Columbia,MD,US,39.24038,-76.83942,Maryland
410,Crofton,MD,US,39.00178,-76.68747,Maryland
410,Dundalk,MD,US,39.25066,-76.52052,Maryland
410,Edgewood,MD,US,39.41872,-76.2944,Maryland
410,Eldersburg,MD,US,39.40371,-76.95026,Maryland
410,West Elkridge,MD,US,39.20705,-76.72692,Maryland
410,Ellicott City,MD,US,39.26733,-76.79831,Maryland
410,Essex,MD,US,39.30927,-76.47496,Maryland
410,Glen Burnie,MD,US,39.16261,-76.62469,Maryland
410,Lochearn,MD,US,39.34066,-76.72219,Maryland
410,Middle River,MD,US,39.33427,-76.43941,Maryland
410,Milford Mill,MD,US,39.34788,-76.76997,Maryland
410,Odenton,MD,US,39.084,-76.70025,Maryland
410,Parkville,MD,US,39.37733,-76.53969,Maryland
410,Perry Hall,MD,US,39.41261,-76.46357,Maryland
410,Pikesville,MD,US,39.37427,-76.72247,Maryland
410,Randallstown,MD,US,39.36733,-76.79525,Maryland
410,Reisterstown,MD,US,39.46976,-76.8319,Maryland
410,Salisbury,MD,US,38.36067,-75.59937,Maryland
410,Severn,MD,US,39.13705,-76.6983,Maryland
410,Severna Park,MD,US,39.07039,-76.54524,Maryland
410,South Gate,MD,US,39.129,-76.6258,Maryland
410,Towson,MD,US,39.4015,-76.60191,Maryland
412,Bethel Park,PA,US,40.32757,-80.0395,Pennsylvania
412,McKeesport,PA,US,40.34785,-79.86422,Pennsylvania
412,Mount Lebanon,PA,US,40.35535,-80.0495,Pennsylvania
412,Monroeville,PA,US,40.42118,-79.7881,Pennsylvania
412,Penn Hills,PA,US,40.50118,-79.83922,Pennsylvania
412,Pittsburgh,PA,US,40.44062,-79.99589,Pennsylvania
412,Plum,PA,US,40.50035,-79.74949,Pennsylvania
412,Upper Saint Clair,PA,US,40.3359,-80.08339,Pennsylvania
412,West Mifflin,PA,US,40.3634,-79.86644,Pennsylvania
413,Agawam,MA,US,42.06954,-72.61481,Massachusetts
413,North Chicopee,MA,US,42.18343,-72.59953,Massachusetts
413,Holyoke,MA,US,42.20426,-72.6162,Massachusetts
413,Northampton,MA,US,42.32509,-72.6412,Massachusetts
413,Pittsfield,MA,US,42.45008,-73.24538,Massachusetts
413,West Springfield,MA,US,42.10704,-72.62037,Massachusetts
413,Westfield,MA,US,42.12509,-72.74954,Massachusetts
414,Franklin,WI,US,42.88863,-88.03842,Wisconsin
414,Greenfield,WI,US,42.9614,-88.01259,Wisconsin
414,South Milwaukee,WI,US,42.91057,-87.86064,Wisconsin
414,Oak Creek,WI,US,42.88585,-87.86314,Wisconsin
414,Wauwatosa,WI,US,43.04946,-88.00759,Wisconsin
414,West Allis,WI,US,43.01668,-88.00703,Wisconsin
415,Novato,CA,US,38.10742,-122.5697,California
415,San Anselmo,CA,US,37.97465,-122.56164,California
415,South San Francisco,CA,US,37.65466,-122.40775,California
415,San Rafael,CA,US,37.97353,-122.53109,California
417,Joplin,MO,US,37.08423,-94.51328,Missouri
417,Springfield,MO,US,37.21533,-93.29824,Missouri
419,Ashland,OH,US,40.86867,-82.31822,Ohio
419,Bowling Green,OH,US,41.37477,-83.65132,Ohio
419,Findlay,OH,US,41.04422,-83.64993,Ohio
419,Lima,OH,US,40.74255,-84.10523,Ohio
419,Mansfield,OH,US,40.75839,-82.51545,Ohio
419,Sandusky,OH,US,41.44894,-82.70796,Ohio
419,Toledo,OH,US,41.66394,-83.55521,Ohio
423,Bristol,TN,US,36.59511,-82.18874,Tennessee
423,East Chattanooga,TN,US,35.06535,-85.24912,Tennessee
423,South Cleveland,TN,US,35.14119,-84.87217,Tennessee
423,East Ridge,TN,US,35.01424,-85.2519,Tennessee
423,Johnson City,TN,US,36.31344,-82.35347,Tennessee
423,Kingsport,TN,US,36.54843,-82.56182,Tennessee
423,Morristown,TN,US,36.21398,-83.29489,Tennessee
424,Beverly Hills,CA,US,34.07362,-118.40036,California
424,West Carson,CA,US,33.82168,-118.29257,California
424,Culver City,CA,US,34.02112,-118.39647,California
424,Gardena,CA,US,33.88835,-118.30896,California
424,Hawthorne,CA,US,33.9164,-118.35257,California
424,Inglewood,CA,US,33.96168,-118.35313,California
424,Lawndale,CA,US,33.88724,-118.35257,California
424,Lennox,CA,US,33.93807,-118.35258,California
424,Lomita,CA,US,33.79224,-118.31507,California
424,Lynwood,CA,US,33.93029,-118.21146,California
424,Manhattan Beach,CA,US,33.88474,-118.41091,California
424,Rancho Palos Verdes,CA,US,33.74446,-118.38702,California
424,Redondo Beach,CA,US,33.84918,-118.38841,California
424,Santa Monica,CA,US,34.01945,-118.49119,California
424,Torrance,CA,US,33.83585,-118.34063,California
425,Bellevue,WA,US,47.61038,-122.20068,Washington
425,Bothell,WA,US,47.76232,-122.2054,Washington
425,Fairwood,WA,US,47.76684,-117.41744,Washington
425,Cottage Lake,WA,US,47.74427,-122.07735,Washington
425,Edmonds,WA,US,47.81065,-122.37736,Washington
425,Everett,WA,US,47.97898,-122.20208,Washington
425,Inglewood-Finn Hill,WA,US,47.72049,-122.23167,Washington
425,Kirkland,WA,US,47.68149,-122.20874,Washington
425,Lynnwood,WA,US,47.82093,-122.31513,Washington
425,Mountlake Terrace,WA,US,47.78815,-122.30874,Washington
425,North Creek,WA,US,47.81954,-122.17624,Washington
425,Redmond,WA,US,47.67399,-122.12151,Washington
425,Renton,WA,US,47.48288,-122.21707,Washington
425,City of Sammamish,WA,US,47.60444,-122.03768,Washington
432,Big Spring,TX,US,32.2504,-101.47874,Texas
432,Midland,TX,US,31.99735,-102.07791,Texas
432,West Odessa,TX,US,31.84235,-102.49876,Texas
434,Charlottesville,VA,US,38.02931,-78.47668,Virginia
434,Danville,VA,US,36.58597,-79.39502,Virginia
434,West Lynchburg,VA,US,37.4032,-79.17808,Virginia
435,Cedar City,UT,US,37.67748,-113.06189,Utah
435,North Logan,UT,US,41.76937,-111.80467,Utah
435,Saint George,UT,US,37.10415,-113.58412,Utah
435,Tooele,UT,US,40.53078,-112.29828,Utah
440,Ashtabula,OH,US,41.86505,-80.78981,Ohio
440,Eastlake,OH,US,41.65394,-81.45039,Ohio
440,Elyria,OH,US,41.36838,-82.10765,Ohio
440,Lorain,OH,US,41.45282,-82.18237,Ohio
440,Mentor,OH,US,41.66616,-81.33955,Ohio
440,North Olmsted,OH,US,41.4156,-81.92347,Ohio
440,North Ridgeville,OH,US,41.38949,-82.01903,Ohio
440,North Royalton,OH,US,41.31366,-81.72457,Ohio
440,Parma,OH,US,41.40477,-81.72291,Ohio
440,Parma Heights,OH,US,41.39005,-81.75958,Ohio
440,Rocky River,OH,US,41.4756,-81.8393,Ohio
440,Solon,OH,US,41.38978,-81.44123,Ohio
440,Strongsville,OH,US,41.3145,-81.83569,Ohio
440,Westlake,OH,US,41.45532,-81.91792,Ohio
440,Willoughby,OH,US,41.63977,-81.4065,Ohio
442,La Quinta,CA,US,33.66336,-116.31001,California
442,Oceanside,CA,US,33.19587,-117.37948,California
442,Palm Desert,CA,US,33.72255,-116.37697,California
442,Palm Springs,CA,US,33.8303,-116.54529,California
442,Ridgecrest,CA,US,35.62246,-117.6709,California
442,San Marcos,CA,US,33.14337,-117.16614,California
442,Victorville,CA,US,34.53611,-117.29116,California
442,Vista,CA,US,33.20004,-117.24254,California
442,Apple Valley,CA,US,34.50083,-117.18588,California
442,Barstow,CA,US,34.89859,-117.02282,California
442,Brawley,CA,US,32.97866,-115.53027,California
442,Calexico,CA,US,32.67895,-115.49888,California
442,Carlsbad,CA,US,33.15809,-117.35059,California
442,Cathedral City,CA,US,33.77974,-116.46529,California
442,Coachella,CA,US,33.6803,-116.17389,California
442,El Centro,CA,US,32.792,-115.56305,California
442,Encinitas,CA,US,33.03699,-117.29198,California
442,Escondido,CA,US,33.11921,-117.08642,California
442,Fallbrook,CA,US,33.37642,-117.25115,California
442,Hesperia,CA,US,34.42639,-117.30088,California
442,Indio,CA,US,33.7207,-116.21677,California
443,Annapolis,MD,US,38.97845,-76.49218,Maryland
443,Arbutus,MD,US,39.25455,-76.69997,Maryland
443,Arnold,MD,US,39.03206,-76.50274,Maryland
443,Baltimore,MD,US,39.29038,-76.61219,Maryland
443,Bel Air North,MD,US,39.55429,-76.37309,Maryland
443,Bel Air South,MD,US,39.50506,-76.31977,Maryland
443,Carney,MD,US,39.39427,-76.52358,Maryland
443,Catonsville,MD,US,39.27205,-76.73192,Maryland
443,Columbia,MD,US,39.24038,-76.83942,Maryland
443,Crofton,MD,US,39.00178,-76.68747,Maryland
443,Dundalk,MD,US,39.25066,-76.52052,Maryland
443,Edgewood,MD,US,39.41872,-76.2944,Maryland
443,Eldersburg,MD,US,39.40371,-76.95026,Maryland
443,West Elkridge,MD,US,39.20705,-76.72692,Maryland
443,Ellicott City,MD,US,39.26733,-76.79831,Maryland
443,Essex,MD,US,39.30927,-76.47496,Maryland
443,Glen Burnie,MD,US,39.16261,-76.62469,Maryland
443,Lochearn,MD,US,39.34066,-76.72219,Maryland
443,Middle River,MD,US,39.33427,-76.43941,Maryland
443,Milford Mill,MD,US,39.34788,-76.76997,Maryland
443,Odenton,MD,US,39.084,-76.70025,Maryland
443,Parkville,MD,US,39.37733,-76.53969,Maryland
443,Perry Hall,MD,US,39.41261,-76.46357,Maryland
443,Pikesville,MD,US,39.37427,-76.72247,Maryland
443,Randallstown,MD,US,39.36733,-76.79525,Maryland
443,Reisterstown,MD,US,39.46976,-76.8319,Maryland
443,Salisbury,MD,US,38.36067,-75.59937,Maryland
443,Severn,MD,US,39.13705,-76.6983,Maryland
443,Severna Park,MD,US,39.07039,-76.54524,Maryland
443,South Gate,MD,US,39.129,-76.6258,Maryland
443,Towson,MD,US,39.4015,-76.60191,Maryland
458,Albany,OR,US,44.63651,-123.10593,Oregon
458,North Bend,OR,US,43.4065,-124.22428,Oregon
458,Corvallis,OR,US,44.56457,-123.26204,Oregon
458,Gresham,OR,US,45.49818,-122.43148,Oregon
458,Grants Pass,OR,US,42.43933,-123.33067,Oregon
458,Medford,OR,US,42.32652,-122.87559,Oregon
458,Roseburg North,OR,US,43.26452,-123.30331,Oregon
458,Springfield,OR,US,44.04624,-123.02203,Oregon
469,Allen,TX,US,33.10317,-96.67055,Texas
469,Carrollton,TX,US,32.95373,-96.89028,Texas
469,Cedar Hill,TX,US,32.58847,-96.95612,Texas
469,Coppell,TX,US,32.95457,-97.01501,Texas
469,Dallas,TX,US,32.78306,-96.80667,Texas
469,DeSoto,TX,US,32.58986,-96.85695,Texas
469,Duncanville,TX,US,32.6518,-96.90834,Texas
469,Farmers Branch,TX,US,32.92651,-96.89612,Texas
469,Flower Mound,TX,US,33.01457,-97.09696,Texas
469,Frisco,TX,US,33.15067,-96.82361,Texas
469,Garland,TX,US,32.91262,-96.63888,Texas
469,Grand Prairie,TX,US,32.74596,-96.99778,Texas
469,Irving,TX,US,32.81402,-96.94889,Texas
469,Lancaster,TX,US,32.59208,-96.75611,Texas
469,Lewisville,TX,US,33.04623,-96.99417,Texas
469,McKinney,TX,US,33.19762,-96.61527,Texas
469,Mesquite,TX,US,32.7668,-96.59916,Texas
469,Plano,TX,US,33.01984,-96.69889,Texas
469,Richardson,TX,US,32.94818,-96.72972,Texas
469,Rowlett,TX,US,32.9029,-96.56388,Texas
469,The Colony,TX,US,33.08901,-96.88639,Texas
469,University Park,TX,US,32.85013,-96.80028,Texas
469,Waxahachie,TX,US,32.38653,-96.84833,Texas
478,Macon,GA,US,32.84069,-83.6324,Georgia
478,Warner Robins,GA,US,32.62098,-83.5999,Georgia
479,Fayetteville,AR,US,36.06258,-94.15743,Arkansas
479,Fort Smith,AR,US,35.38592,-94.39855,Arkansas
479,Rogers,AR,US,36.33202,-94.11854,Arkansas
479,Russellville,AR,US,35.27842,-93.13379,Arkansas
479,Springdale,AR,US,36.18674,-94.12881,Arkansas
480,Apache Junction,AZ,US,33.41505,-111.54958,Arizona
480,Chandler,AZ,US,33.30616,-111.84125,Arizona
480,Fountain Hills,AZ,US,33.61171,-111.71736,Arizona
480,Gilbert,AZ,US,33.35283,-111.78903,Arizona
480,Mesa,AZ,US,33.41253,-111.83189,Arizona
480,Scottsdale,AZ,US,33.50921,-111.89903,Arizona
480,Tempe,AZ,US,33.41477,-111.90931,Arizona
484,Allentown,PA,US,40.60843,-75.49018,Pennsylvania
484,Bethlehem,PA,US,40.62593,-75.37046,Pennsylvania
484,West Chester,PA,US,39.96097,-75.60804,Pennsylvania
484,Drexel Hill,PA,US,39.94706,-75.29213,Pennsylvania
484,Easton,PA,US,40.68843,-75.22073,Pennsylvania
484,Norristown,PA,US,40.1215,-75.3399,Pennsylvania
484,Pottstown,PA,US,40.24537,-75.64963,Pennsylvania
484,Radnor,PA,US,40.04622,-75.35991,Pennsylvania
484,Reading,PA,US,40.33565,-75.92687,Pennsylvania
484,Springfield,PA,US,39.93067,-75.32019,Pennsylvania
501,Benton,AR,US,34.56454,-92.58683,Arkansas
501,Conway,AR,US,35.0887,-92.4421,Arkansas
501,Hot Springs,AR,US,34.5037,-93.05518,Arkansas
501,Jacksonville,AR,US,34.8662,-92.11015,Arkansas
501,North Little Rock,AR,US,34.76954,-92.26709,Arkansas
501,Sherwood,AR,US,34.81509,-92.22432,Arkansas
502,Frankfort,KY,US,38.20091,-84.87328,Kentucky
502,Louisville,KY,US,38.25424,-85.75941,Kentucky
503,Aloha,OR,US,45.49428,-122.86705,Oregon
503,Beaverton,OR,US,45.48706,-122.80371,Oregon
503,Gresham,OR,US,45.49818,-122.43148,Oregon
503,Hillsboro,OR,US,45.52289,-122.98983,Oregon
503,Keizer,OR,US,44.99012,-123.02621,Oregon
503,Lake Oswego,OR,US,45.42067,-122.67065,Oregon
503,McMinnville,OR,US,45.21012,-123.19872,Oregon
503,Milwaukie,OR,US,45.44623,-122.63926,Oregon
503,Oregon City,OR,US,45.35734,-122.60676,Oregon
503,Portland,OR,US,45.52345,-122.67621,Oregon
503,Salem,OR,US,44.9429,-123.0351,Oregon
503,Tigard,OR,US,45.43123,-122.77149,Oregon
503,Tualatin,OR,US,45.38401,-122.76399,Oregon
503,West Linn,OR,US,45.36568,-122.61231,Oregon
503,Woodburn,OR,US,45.14373,-122.85537,Oregon
504,Chalmette,LA,US,29.94296,-89.96537,Louisiana
504,Harvey,LA,US,29.90354,-90.07729,Louisiana
504,Kenner,LA,US,29.99409,-90.24174,Louisiana
504,Marrero,LA,US,29.89937,-90.10035,Louisiana
504,Metairie,LA,US,29.98409,-90.15285,Louisiana
504,New Orleans,LA,US,29.95465,-90.07507,Louisiana
504,Terrytown,LA,US,29.91021,-90.03257,Louisiana
505,Albuquerque,NM,US,35.08449,-106.65114,New Mexico
505,Farmington,NM,US,36.72806,-108.21869,New Mexico
505,Gallup,NM,US,35.52808,-108.74258,New Mexico
505,Rio Rancho,NM,US,35.23338,-106.66447,New Mexico
505,Santa Fe,NM,US,35.68698,-105.9378,New Mexico
505,South Valley,NM,US,35.01005,-106.67808,New Mexico
507,Austin,MN,US,43.66663,-92.97464,Minnesota
507,Faribault,MN,US,44.29496,-93.26883,Minnesota
507,North Mankato,MN,US,44.1733,-94.03385,Minnesota
507,Owatonna,MN,US,44.08385,-93.22604,Minnesota
507,Rochester,MN,US,44.02163,-92.4699,Minnesota
507,Winona,MN,US,44.04996,-91.63932,Minnesota
508,Attleboro,MA,US,41.94454,-71.28561,Massachusetts
508,Barnstable,MA,US,41.70011,-70.29947,Massachusetts
508,Brockton,MA,US,42.08343,-71.01838,Massachusetts
508,Fall River,MA,US,41.70149,-71.15505,Massachusetts
508,Framingham,MA,US,42.27926,-71.41617,Massachusetts
508,Franklin,MA,US,42.08343,-71.39673,Massachusetts
508,Marlborough,MA,US,42.34593,-71.55229,Massachusetts
508,Milford,MA,US,42.13982,-71.51617,Massachusetts
508,New Bedford,MA,US,41.63622,-70.93421,Massachusetts
508,Taunton,MA,US,41.9001,-71.08977,Massachusetts
508,Worcester,MA,US,42.26259,-71.80229,Massachusetts
509,Kennewick,WA,US,46.21125,-119.13723,Washington
509,Opportunity,WA,US,47.64995,-117.23991,Washington
509,Pasco,WA,US,46.23958,-119.10057,Washington
509,Pullman,WA,US,46.73127,-117.17962,Washington
509,West Richland,WA,US,46.3043,-119.36141,Washington
509,Spokane,WA,US,47.65966,-117.42908,Washington
509,Walla Walla,WA,US,46.06458,-118.34302,Washington
509,Wenatchee,WA,US,47.42346,-120.31035,Washington
509,Yakima,WA,US,46.60207,-120.5059,Washington
510,Alameda,CA,US,37.76521,-122.24164,California
510,Berkeley,CA,US,37.87159,-122.27275,California
510,Castro Valley,CA,US,37.6941,-122.08635,California
510,El Cerrito,CA,US,33.84057,-117.52283,California
510,Fremont,CA,US,37.54827,-121.98857,California
510,Hayward,CA,US,37.66882,-122.0808,California
510,Newark,CA,US,37.52966,-122.04024,California
510,Oakland,CA,US,37.80437,-122.2708,California
510,Richmond,CA,US,37.93576,-122.34775,California
510,San Leandro,CA,US,37.72493,-122.15608,California
510,San Lorenzo,CA,US,37.68104,-122.12441,California
510,San Pablo,CA,US,37.96215,-122.34553,California
510,Union City,CA,US,37.59577,-122.01913,California
512,Austin,TX,US,30.26715,-97.74306,Texas
512,Cedar Park,TX,US,30.5052,-97.82029,Texas
512,Georgetown,TX,US,30.63269,-97.67723,Texas
512,Round Rock,TX,US,30.50826,-97.6789,Texas
512,San Marcos,TX,US,29.88327,-97.94139,Texas
513,Cincinnati,OH,US,39.162,-84.45689,Ohio
513,Fairfield,OH,US,39.34589,-84.5605,Ohio
513,Hamilton,OH,US,39.3995,-84.56134,Ohio
513,Mason,OH,US,39.36006,-84.30994,Ohio
513,Middletown,OH,US,39.51506,-84.39828,Ohio
513,Norwood,OH,US,39.15561,-84.45966,Ohio
513,Oxford,OH,US,39.507,-84.74523,Ohio
515,Ames,IA,US,42.03471,-93.61994,Iowa
515,Ankeny,IA,US,41.72971,-93.60577,Iowa
515,West Des Moines,IA,US,41.57721,-93.71133,Iowa
515,Fort Dodge,IA,US,42.49747,-94.16802,Iowa
515,Urbandale,IA,US,41.62666,-93.71217,Iowa
516,Baldwin,NY,US,40.65649,-73.6093,New York
516,East Meadow,NY,US,40.71399,-73.55902,New York
516,Elmont,NY,US,40.70094,-73.71291,New York
516,Franklin Square,NY,US,40.70732,-73.67596,New York
516,Freeport,NY,US,40.6576,-73.58318,New York
516,Garden City,NY,US,40.72677,-73.6343,New York
516,Glen Cove,NY,US,40.86232,-73.63374,New York
516,West Hempstead,NY,US,40.70482,-73.65013,New York
516,Hicksville,NY,US,40.76843,-73.52513,New York
516,Levittown,NY,US,40.72593,-73.51429,New York
516,Long Beach,NY,US,40.58844,-73.65791,New York
516,North Massapequa,NY,US,40.70093,-73.46207,New York
516,North Merrick,NY,US,40.69121,-73.56318,New York
516,North Bellmore,NY,US,40.69149,-73.53346,New York
516,Oceanside,NY,US,40.63871,-73.64013,New York
516,Plainview,NY,US,40.77649,-73.46735,New York
516,Rockville Centre,NY,US,40.65871,-73.64124,New York
516,Uniondale,NY,US,40.70038,-73.59291,New York
516,Valley Stream,NY,US,40.66427,-73.70846,New York
517,Adrian,MI,US,41.89755,-84.03717,Michigan
517,Clinton,MI,US,42.58698,-82.91992,Michigan
517,East Lansing,MI,US,42.73698,-84.48387,Michigan
517,Jackson,MI,US,42.24587,-84.40135,Michigan
517,Lansing,MI,US,42.73253,-84.55553,Michigan
517,Okemos,MI,US,42.72226,-84.42747,Michigan
518,West Albany,NY,US,42.68313,-73.77845,New York
518,Rotterdam,NY,US,42.78702,-73.97096,New York
518,Saratoga Springs,NY,US,43.08313,-73.78457,New York
518,Schenectady,NY,US,42.81424,-73.93957,New York
518,Troy,NY,US,42.72841,-73.69179,New York
520,Casa Grande,AZ,US,32.8795,-111.75735,Arizona
520,Catalina Foothills,AZ,US,32.29785,-110.9187,Arizona
520,Drexel Heights,AZ,US,32.14119,-111.02843,Arizona
520,Nogales,AZ,US,31.34038,-110.93425,Arizona
520,Oro Valley,AZ,US,32.39091,-110.96649,Arizona
520,Sierra Vista,AZ,US,31.55454,-110.30369,Arizona
520,Tucson,AZ,US,32.22174,-110.92648,Arizona
530,Chico,CA,US,39.72849,-121.83748,California
530,Davis,CA,US,38.54491,-121.74052,California
530,Paradise,CA,US,39.75961,-121.62192,California
530,Redding,CA,US,40.58654,-122.39168,California
530,South Lake Tahoe,CA,US,38.93324,-119.98435,California
530,Woodland,CA,US,38.67852,-121.7733,California
530,Yuba City,CA,US,39.14045,-121.61691,California
531,Bellevue,NE,US,41.13667,-95.89084,Nebraska
531,Columbus,NE,US,41.42973,-97.36838,Nebraska
531,Fremont,NE,US,41.43333,-96.49808,Nebraska
531,Hastings,NE,US,40.58612,-98.38839,Nebraska
531,Lincoln,NE,US,40.8,-96.66696,Nebraska
531,Norfolk,NE,US,42.02834,-97.417,Nebraska
531,Omaha,NE,US,41.25861,-95.93779,Nebraska
539,Bartlesville,OK,US,36.74731,-95.98082,Oklahoma
539,Broken Arrow,OK,US,36.0526,-95.79082,Oklahoma
539,Muskogee,OK,US,35.74788,-95.36969,Oklahoma
539,Tulsa,OK,US,36.15398,-95.99277,Oklahoma
540,Blacksburg,VA,US,37.22957,-80.41394,Virginia
540,Cave Spring,VA,US,37.22764,-80.01282,Virginia
540,Harrisonburg,VA,US,38.44957,-78.86892,Virginia
540,Roanoke,VA,US,37.27097,-79.94143,Virginia
540,Salem,VA,US,37.29347,-80.05476,Virginia
540,Staunton,VA,US,38.14991,-79.0732,Virginia
540,Winchester,VA,US,39.18566,-78.16333,Virginia
541,Albany,OR,US,44.63651,-123.10593,Oregon
541,North Bend,OR,US,43.4065,-124.22428,Oregon
541,Corvallis,OR,US,44.56457,-123.26204,Oregon
541,Gresham,OR,US,45.49818,-122.43148,Oregon
541,Grants Pass,OR,US,42.43933,-123.33067,Oregon
541,Medford,OR,US,42.32652,-122.87559,Oregon
541,Roseburg North,OR,US,43.26452,-123.30331,Oregon
541,Springfield,OR,US,44.04624,-123.02203,Oregon
551,Bayonne,NJ,US,40.66871,-74.11431,New Jersey
551,Bergenfield,NJ,US,40.9276,-73.99736,New Jersey
551,Cliffside Park,NJ,US,40.82149,-73.98764,New Jersey
551,Englewood,NJ,US,40.89288,-73.97264,New Jersey
551,Fair Lawn,NJ,US,40.94038,-74.13181,New Jersey
551,Fort Lee,NJ,US,40.85093,-73.97014,New Jersey
551,Hackensack,NJ,US,40.88593,-74.04347,New Jersey
551,Hoboken,NJ,US,40.74399,-74.03236,New Jersey
551,Jersey City,NJ,US,40.72816,-74.07764,New Jersey
551,Kearny,NJ,US,40.76843,-74.14542,New Jersey
551,North Bergen,NJ,US,40.80427,-74.01208,New Jersey
551,Paramus,NJ,US,40.94454,-74.07542,New Jersey
551,Ridgewood,NJ,US,40.97926,-74.11653,New Jersey
551,Teaneck,NJ,US,40.8976,-74.01597,New Jersey
551,Union City,NJ,US,40.77955,-74.02375,New Jersey
551,West New York,NJ,US,40.78788,-74.01431,New Jersey
559,Clovis,CA,US,36.82523,-119.70292,California
559,Fresno,CA,US,36.74773,-119.77237,California
559,Hanford,CA,US,36.32745,-119.64568,California
559,Madera,CA,US,36.96134,-120.06072,California
559,Porterville,CA,US,36.06523,-119.01677,California
559,Reedley,CA,US,36.59634,-119.4504,California
559,Tulare,CA,US,36.20773,-119.34734,California
559,Visalia,CA,US,36.33023,-119.29206,California
561,Boca Del Mar,FL,US,26.34508,-80.14671,Florida
561,Boca Raton,FL,US,26.35869,-80.0831,Florida
561,Boynton Beach,FL,US,26.52535,-80.06643,Florida
561,Delray Beach,FL,US,26.46146,-80.07282,Florida
561,Jupiter,FL,US,26.93422,-80.09421,Florida
561,Lake Worth,FL,US,26.61708,-80.07231,Florida
561,Palm Beach Gardens,FL,US,26.82339,-80.13865,Florida
561,Riviera Beach,FL,US,26.77534,-80.0581,Florida
561,Royal Palm Beach,FL,US,26.7084,-80.2306,Florida
561,University Park,FL,US,25.74649,-80.36755,Florida
561,Wellington,FL,US,26.65868,-80.24144,Florida
561,West Palm Beach,FL,US,26.71534,-80.05337,Florida
562,Bellflower,CA,US,33.88168,-118.11701,California
562,Cerritos,CA,US,33.85835,-118.06479,California
562,Downey,CA,US,33.94001,-118.13257,California
562,La Habra,CA,US,33.93196,-117.94617,California
562,La Mirada,CA,US,33.91724,-118.01201,California
562,Lakewood,CA,US,33.85363,-118.13396,California
562,Long Beach,CA,US,33.76696,-118.18923,California
562,Norwalk,CA,US,33.90224,-118.08173,California
562,Paramount,CA,US,33.88946,-118.15979,California
562,Pico Rivera,CA,US,33.98307,-118.09673,California
562,Seal Beach,CA,US,33.74141,-118.10479,California
562,South Whittier,CA,US,33.95015,-118.03917,California
562,West Whittier-Los Nietos,CA,US,33.976,-118.06909,California
562,Whittier,CA,US,33.97918,-118.03284,California
563,Bettendorf,IA,US,41.52448,-90.51569,Iowa
563,Clinton,IA,US,41.84447,-90.18874,Iowa
563,Davenport,IA,US,41.52364,-90.57764,Iowa
563,Dubuque,IA,US,42.50056,-90.66457,Iowa
563,Muscatine,IA,US,41.42447,-91.04321,Iowa
567,Ashland,OH,US,40.86867,-82.31822,Ohio
567,Bowling Green,OH,US,41.37477,-83.65132,Ohio
567,Findlay,OH,US,41.04422,-83.64993,Ohio
567,Lima,OH,US,40.74255,-84.10523,Ohio
567,Mansfield,OH,US,40.75839,-82.51545,Ohio
567,Sandusky,OH,US,41.44894,-82.70796,Ohio
567,Toledo,OH,US,41.66394,-83.55521,Ohio
570,Back Mountain,PA,US,41.33591,-75.99631,Pennsylvania
570,Hazleton,PA,US,40.95842,-75.97465,Pennsylvania
570,Scranton,PA,US,41.40916,-75.6649,Pennsylvania
570,Wilkes-Barre,PA,US,41.24591,-75.88131,Pennsylvania
570,Williamsport,PA,US,41.24119,-77.00108,Pennsylvania
571,Alexandria,VA,US,38.80484,-77.04692,Virginia
571,Annandale,VA,US,38.83039,-77.19637,Virginia
571,Arlington,VA,US,38.88101,-77.10428,Virginia
571,Burke,VA,US,38.79345,-77.27165,Virginia
571,Centreville,VA,US,38.84039,-77.42888,Virginia
571,Chantilly,VA,US,38.89428,-77.4311,Virginia
571,Dale City,VA,US,38.63706,-77.31109,Virginia
571,Fairfax,VA,US,38.84622,-77.30637,Virginia
571,Franconia,VA,US,38.78206,-77.14637,Virginia
571,Groveton,VA,US,38.76734,-77.0847,Virginia
571,Herndon,VA,US,38.96955,-77.3861,Virginia
571,Lake Ridge,VA,US,38.68789,-77.29776,Virginia
571,Leesburg,VA,US,39.11566,-77.5636,Virginia
571,Manassas,VA,US,38.75095,-77.47527,Virginia
571,McLean,VA,US,38.93428,-77.17748,Virginia
571,Mount Vernon,VA,US,38.71919,-77.10726,Virginia
571,Oakton,VA,US,38.88095,-77.30082,Virginia
571,Reston,VA,US,38.96872,-77.3411,Virginia
571,West Springfield,VA,US,38.77261,-77.22109,Virginia
573,Cape Girardeau,MO,US,37.30588,-89.51815,Missouri
573,Columbia,MO,US,38.95171,-92.33407,Missouri
573,Jefferson City,MO,US,38.5767,-92.17352,Missouri
574,Elkhart,IN,US,41.68199,-85.97667,Indiana
574,Goshen,IN,US,41.58227,-85.83444,Indiana
574,Granger,IN,US,41.75338,-86.11084,Indiana
574,Mishawaka,IN,US,41.66199,-86.15862,Indiana
574,South Bend,IN,US,41.68338,-86.25001,Indiana
575,Alamogordo,NM,US,32.89953,-105.96027,New Mexico
575,Carlsbad,NM,US,32.42067,-104.22884,New Mexico
575,Clovis,NM,US,34.4048,-103.20523,New Mexico
575,Hobbs,NM,US,32.70261,-103.13604,New Mexico
575,Las Cruces,NM,US,32.31232,-106.77834,New Mexico
575,Roswell,NM,US,33.39437,-104.52491,New Mexico
580,Altus,OK,US,34.63813,-99.33398,Oklahoma
580,Ardmore,OK,US,34.17426,-97.14363,Oklahoma
580,Duncan,OK,US,34.5023,-97.95781,Oklahoma
580,Enid,OK,US,36.39559,-97.87839,Oklahoma
580,Lawton,OK,US,34.60869,-98.39033,Oklahoma
580,Ponca City,OK,US,36.70698,-97.08559,Oklahoma
585,Brighton,NY,US,43.14756,-77.55055,New York
585,Irondequoit,NY,US,43.2134,-77.57972,New York
585,Rochester,NY,US,43.15478,-77.61556,New York
586,Clinton,MI,US,42.58698,-82.91992,Michigan
586,Eastpointe,MI,US,42.46837,-82.95547,Michigan
586,Roseville,MI,US,42.49726,-82.93714,Michigan
586,Shelby,MI,US,42.67087,-83.03298,Michigan
586,Saint Clair Shores,MI,US,42.49698,-82.88881,Michigan
586,Sterling Heights,MI,US,42.58031,-83.0302,Michigan
586,Warren,MI,US,42.47754,-83.0277,Michigan
601,Clinton,MS,US,32.34153,-90.32176,Mississippi
601,West Hattiesburg,MS,US,31.31906,-89.37506,Mississippi
601,Jackson,MS,US,32.29876,-90.18481,Mississippi
601,Meridian,MS,US,32.36431,-88.70366,Mississippi
601,Pearl,MS,US,32.27459,-90.13203,Mississippi
601,Ridgeland,MS,US,32.42848,-90.13231,Mississippi
601,Vicksburg,MS,US,32.35265,-90.87788,Mississippi
602,Phoenix,AZ,US,33.44838,-112.07404,Arizona
603,East Concord,NH,US,43.24202,-71.53813,New Hampshire
603,Derry,NH,US,42.88064,-71.32729,New Hampshire
603,Dover,NH,US,43.19786,-70.87367,New Hampshire
603,Keene,NH,US,42.93369,-72.27814,New Hampshire
603,Manchester,NH,US,42.99564,-71.45479,New Hampshire
603,Nashua,NH,US,42.76537,-71.46757,New Hampshire
603,Portsmouth,NH,US,43.07176,-70.76255,New Hampshire
603,Rochester,NH,US,43.30453,-70.97562,New Hampshire
605,Aberdeen,SD,US,45.4647,-98.48648,South Dakota
605,Pierre,SD,US,44.36832,-100.35097,South Dakota
605,Rapid City,SD,US,44.08054,-103.23101,South Dakota
605,Sioux Falls,SD,US,43.54997,-96.70033,South Dakota
605,Watertown,SD,US,44.89941,-97.11507,South Dakota
606,Ashland,KY,US,38.47841,-82.63794,Kentucky
607,Binghamton,NY,US,42.09869,-75.91797,New York
607,Elmira,NY,US,42.0898,-76.80773,New York
607,Ithaca,NY,US,42.44063,-76.49661,New York
608,Beloit,WI,US,42.50835,-89.03178,Wisconsin
608,Fitchburg,WI,US,42.96083,-89.46984,Wisconsin
608,Janesville,WI,US,42.68279,-89.01872,Wisconsin
608,North La Crosse,WI,US,43.84635,-91.24819,Wisconsin
608,Madison,WI,US,43.07305,-89.40123,Wisconsin
608,Sun Prairie,WI,US,43.1836,-89.21373,Wisconsin
609,Atlantic City,NJ,US,39.36428,-74.42293,New Jersey
609,Ewing,NJ,US,40.26983,-74.79988,New Jersey
609,Trenton,NJ,US,40.21705,-74.74294,New Jersey
609,Willingboro,NJ,US,40.02789,-74.86905,New Jersey
610,Allentown,PA,US,40.60843,-75.49018,Pennsylvania
610,Bethlehem,PA,US,40.62593,-75.37046,Pennsylvania
610,West Chester,PA,US,39.96097,-75.60804,Pennsylvania
610,Drexel Hill,PA,US,39.94706,-75.29213,Pennsylvania
610,Easton,PA,US,40.68843,-75.22073,Pennsylvania
610,Norristown,PA,US,40.1215,-75.3399,Pennsylvania
610,Pottstown,PA,US,40.24537,-75.64963,Pennsylvania
610,Radnor,PA,US,40.04622,-75.35991,Pennsylvania
610,Reading,PA,US,40.33565,-75.92687,Pennsylvania
610,Springfield,PA,US,39.93067,-75.32019,Pennsylvania
612,Crystal,MN,US,45.03274,-93.36023,Minnesota
612,Golden Valley,MN,US,45.00969,-93.34912,Minnesota
612,Minneapolis,MN,US,44.97997,-93.26384,Minnesota
612,Richfield,MN,US,44.8833,-93.283,Minnesota
612,Saint Louis Park,MN,US,44.9483,-93.34801,Minnesota
614,Columbus,OH,US,39.96118,-82.99879,Ohio
614,Dublin,OH,US,40.09923,-83.11408,Ohio
614,Gahanna,OH,US,40.01923,-82.87934,Ohio
614,Grove City,OH,US,39.88145,-83.09296,Ohio
614,Hilliard,OH,US,40.0334,-83.15825,Ohio
614,Reynoldsburg,OH,US,39.95479,-82.81212,Ohio
614,Upper Arlington,OH,US,39.99451,-83.06241,Ohio
614,Westerville,OH,US,40.12617,-82.92907,Ohio
615,Brentwood,TN,US,36.03312,-86.78278,Tennessee
615,Franklin,TN,US,35.92506,-86.86889,Tennessee
615,Gallatin,TN,US,36.38838,-86.44666,Tennessee
615,Hendersonville,TN,US,36.30477,-86.62,Tennessee
615,Lebanon,TN,US,36.20811,-86.2911,Tennessee
615,Murfreesboro,TN,US,35.84562,-86.39027,Tennessee
615,Nashville,TN,US,36.16589,-86.78444,Tennessee
615,Smyrna,TN,US,35.98284,-86.5186,Tennessee
616,Forest Hills,MI,US,42.95947,-85.48975,Michigan
616,Grand Rapids,MI,US,42.96336,-85.66809,Michigan
616,Holland,MI,US,42.78752,-86.10893,Michigan
616,Kentwood,MI,US,42.86947,-85.64475,Michigan
616,Walker,MI,US,43.00141,-85.76809,Michigan
616,Wyoming,MI,US,42.91336,-85.70531,Michigan
617,Belmont,MA,US,42.39593,-71.17867,Massachusetts
617,South Boston,MA,US,42.33343,-71.04949,Massachusetts
617,Brookline,MA,US,42.33176,-71.12116,Massachusetts
617,Cambridge,MA,US,42.3751,-71.10561,Massachusetts
617,Chelsea,MA,US,42.39176,-71.03283,Massachusetts
617,Everett,MA,US,42.40843,-71.05366,Massachusetts
617,Milton,MA,US,42.24954,-71.06616,Massachusetts
617,Newton,MA,US,42.33704,-71.20922,Massachusetts
617,Quincy,MA,US,42.25288,-71.00227,Massachusetts
617,Somerville,MA,US,42.3876,-71.0995,Massachusetts
617,Watertown,MA,US,42.37093,-71.18283,Massachusetts
618,East Alton,IL,US,38.88033,-90.11122,Illinois
618,Belleville,IL,US,38.52005,-89.98399,Illinois
618,Carbondale,IL,US,37.72727,-89.21675,Illinois
618,Collinsville,IL,US,38.67033,-89.98455,Illinois
618,East Saint Louis,IL,US,38.6245,-90.15094,Illinois
618,Edwardsville,IL,US,38.81144,-89.95316,Illinois
618,Granite City,IL,US,38.70144,-90.14872,Illinois
618,O'Fallon,IL,US,38.59227,-89.91121,Illinois
619,Chula Vista,CA,US,32.64005,-117.0842,California
619,Coronado,CA,US,32.68589,-117.18309,California
619,El Cajon,CA,US,32.79477,-116.96253,California
619,Imperial Beach,CA,US,32.58394,-117.11308,California
619,La Mesa,CA,US,32.76783,-117.02308,California
619,La Presa,CA,US,32.70811,-116.99725,California
619,Lemon Grove,CA,US,32.74255,-117.03142,California
619,National City,CA,US,32.67811,-117.0992,California
619,Rancho San Diego,CA,US,32.74727,-116.9353,California
619,San Diego,CA,US,32.71533,-117.15726,California
619,Santee,CA,US,32.83838,-116.97392,California
619,Spring Valley,CA,US,32.74477,-116.99892,California
620,Dodge City,KS,US,37.7528,-100.01708,Kansas
620,Emporia,KS,US,38.4039,-96.18166,Kansas
620,Garden City,KS,US,37.97169,-100.87266,Kansas
620,Hutchinson,KS,US,38.06084,-97.92977,Kansas
623,Avondale,AZ,US,33.4356,-112.3496,Arizona
623,Glendale,AZ,US,33.53865,-112.18599,Arizona
623,Peoria,AZ,US,33.5806,-112.23738,Arizona
623,Sun City West,AZ,US,33.66198,-112.34127,Arizona
623,Surprise,AZ,US,33.63059,-112.33322,Arizona
626,Alhambra,CA,US,34.09529,-118.12701,California
626,Altadena,CA,US,34.18973,-118.13118,California
626,Arcadia,CA,US,34.13973,-118.03534,California
626,Azusa,CA,US,34.13362,-117.90756,California
626,Baldwin Park,CA,US,34.08529,-117.9609,California
626,West Covina,CA,US,34.06862,-117.93895,California
626,Duarte,CA,US,34.13945,-117.97729,California
626,South El Monte,CA,US,34.05195,-118.04673,California
626,Glendora,CA,US,34.13612,-117.86534,California
626,Hacienda Heights,CA,US,33.99307,-117.96868,California
626,La Puente,CA,US,34.02001,-117.94951,California
626,Monrovia,CA,US,34.14806,-117.99895,California
626,Monterey Park,CA,US,34.06251,-118.12285,California
626,South Pasadena,CA,US,34.11612,-118.15035,California
626,Rosemead,CA,US,34.08057,-118.07285,California
626,Rowland Heights,CA,US,33.97612,-117.90534,California
626,South San Gabriel,CA,US,34.04915,-118.09462,California
626,South San Jose Hills,CA,US,34.01279,-117.90478,California
626,Temple City,CA,US,34.10723,-118.05785,California
626,Valinda,CA,US,34.04529,-117.94367,California
626,Walnut,CA,US,34.02029,-117.86534,California
626,West Puente Valley,CA,US,34.05168,-117.9684,California
628,Novato,CA,US,38.10742,-122.5697,California
628,San Anselmo,CA,US,37.97465,-122.56164,California
628,South San Francisco,CA,US,37.65466,-122.40775,California
628,San Rafael,CA,US,37.97353,-122.53109,California
629,Brentwood,TN,US,36.03312,-86.78278,Tennessee
629,Franklin,TN,US,35.92506,-86.86889,Tennessee
629,Gallatin,TN,US,36.38838,-86.44666,Tennessee
629,Hendersonville,TN,US,36.30477,-86.62,Tennessee
629,Lebanon,TN,US,36.20811,-86.2911,Tennessee
629,Murfreesboro,TN,US,35.84562,-86.39027,Tennessee
629,Nashville,TN,US,36.16589,-86.78444,Tennessee
629,Smyrna,TN,US,35.98284,-86.5186,Tennessee
630,Addison,IL,US,41.9317,-87.98896,Illinois
630,North Aurora,IL,US,41.80614,-88.3273,Illinois
630,Bartlett,IL,US,41.99503,-88.18563,Illinois
630,Batavia,IL,US,41.85003,-88.31257,Illinois
630,Bensenville,IL,US,41.95503,-87.94007,Illinois
630,Bloomingdale,IL,US,41.95753,-88.0809,Illinois
630,Bolingbrook,IL,US,41.69864,-88.0684,Illinois
630,Carol Stream,IL,US,41.91253,-88.13479,Illinois
630,Darien,IL,US,41.75198,-87.97395,Illinois
630,Downers Grove,IL,US,41.80892,-88.01117,Illinois
630,Elmhurst,IL,US,41.89947,-87.94034,Illinois
630,Glen Ellyn,IL,US,41.87753,-88.06701,Illinois
630,Glendale Heights,IL,US,41.91031,-88.07174,Illinois
630,Hanover Park,IL,US,41.99947,-88.14507,Illinois
630,Lisle,IL,US,41.80114,-88.07479,Illinois
630,Lombard,IL,US,41.88003,-88.00784,Illinois
630,Naperville,IL,US,41.78586,-88.14729,Illinois
630,Roselle,IL,US,41.98475,-88.07979,Illinois
630,Saint Charles,IL,US,41.91419,-88.30869,Illinois
630,Streamwood,IL,US,42.02558,-88.17841,Illinois
630,Villa Park,IL,US,41.88975,-87.98895,Illinois
630,West Chicago,IL,US,41.88475,-88.20396,Illinois
630,Westmont,IL,US,41.79586,-87.97562,Illinois
630,Wheaton,IL,US,41.86614,-88.10701,Illinois
630,Woodridge,IL,US,41.74697,-88.05034,Illinois
631,North Bay Shore,NY,US,40.73621,-73.26262,New York
631,Brentwood,NY,US,40.78121,-73.24623,New York
631,Centereach,NY,US,40.85843,-73.09955,New York
631,Central Islip,NY,US,40.79065,-73.20178,New York
631,Commack,NY,US,40.84288,-73.29289,New York
631,Copiague,NY,US,40.68149,-73.39984,New York
631,Coram,NY,US,40.86871,-73.00149,New York
631,Deer Park,NY,US,40.76177,-73.32929,New York
631,Dix Hills,NY,US,40.80482,-73.33623,New York
631,East Northport,NY,US,40.87676,-73.32456,New York
631,East Patchogue,NY,US,40.76704,-72.99622,New York
631,Hauppauge,NY,US,40.82565,-73.20261,New York
631,Holbrook,NY,US,40.81232,-73.07844,New York
631,Huntington Station,NY,US,40.85343,-73.41151,New York
631,West Islip,NY,US,40.70621,-73.30623,New York
631,North Lindenhurst,NY,US,40.71427,-73.38151,New York
631,Medford,NY,US,40.8176,-73.00011,New York
631,Ronkonkoma,NY,US,40.81538,-73.11233,New York
631,Selden,NY,US,40.86649,-73.03566,New York
631,Shirley,NY,US,40.80149,-72.8676,New York
631,Smithtown,NY,US,40.85593,-73.20067,New York
631,West Babylon,NY,US,40.71816,-73.35429,New York
636,Ballwin,MO,US,38.59505,-90.54623,Missouri
636,Chesterfield,MO,US,38.66311,-90.57707,Missouri
636,O'Fallon,MO,US,38.81061,-90.69985,Missouri
636,Saint Charles,MO,US,38.78394,-90.48123,Missouri
636,Saint Peters,MO,US,38.80033,-90.62651,Missouri
636,Wildwood,MO,US,38.58283,-90.6629,Missouri
641,Marshalltown,IA,US,42.04943,-92.90798,Iowa
641,Mason City,IA,US,43.15357,-93.20104,Iowa
641,Ottumwa,IA,US,41.02001,-92.4113,Iowa
646,New York City,NY,US,40.71427,-74.00597,New York
650,Belmont,CA,US,37.52021,-122.2758,California
650,Burlingame,CA,US,37.5841,-122.36608,California
650,Daly City,CA,US,37.70577,-122.46192,California
650,East Palo Alto,CA,US,37.46883,-122.14108,California
650,Foster City,CA,US,37.55855,-122.27108,California
650,Los Altos,CA,US,37.38522,-122.11413,California
650,Menlo Park,CA,US,37.45383,-122.18219,California
650,Millbrae,CA,US,37.59855,-122.38719,California
650,Mountain View,CA,US,37.38605,-122.08385,California
650,Pacifica,CA,US,37.61383,-122.48692,California
650,Palo Alto,CA,US,37.44188,-122.14302,California
650,Redwood City,CA,US,37.48522,-122.23635,California
650,San Bruno,CA,US,37.63049,-122.41108,California
650,San Carlos,CA,US,37.50716,-122.26052,California
650,San Mateo,CA,US,37.56299,-122.32553,California
650,South San Francisco,CA,US,37.65466,-122.40775,California
651,Apple Valley,MN,US,44.73191,-93.21772,Minnesota
651,Cottage Grove,MN,US,44.82774,-92.94382,Minnesota
651,Eagan,MN,US,44.80413,-93.16689,Minnesota
651,Inver Grove Heights,MN,US,44.84802,-93.04272,Minnesota
651,Lakeville,MN,US,44.64969,-93.24272,Minnesota
651,Maplewood,MN,US,44.95302,-92.99522,Minnesota
651,New Brighton,MN,US,45.06552,-93.20189,Minnesota
651,Oakdale,MN,US,44.96302,-92.96494,Minnesota
651,Roseville,MN,US,45.00608,-93.15661,Minnesota
651,Shoreview,MN,US,45.07913,-93.14717,Minnesota
651,South Saint Paul,MN,US,44.89274,-93.03494,Minnesota
651,Saint Paul,MN,US,44.94441,-93.09327,Minnesota
651,White Bear Lake,MN,US,45.08469,-93.00994,Minnesota
651,Woodbury,MN,US,44.92386,-92.95938,Minnesota
657,Anaheim,CA,US,33.83529,-117.9145,California
657,Brea,CA,US,33.91668,-117.90006,California
657,Buena Park,CA,US,33.86751,-117.99812,California
657,Cypress,CA,US,33.81696,-118.03729,California
657,Fountain Valley,CA,US,33.70918,-117.95367,California
657,Fullerton,CA,US,33.87029,-117.92534,California
657,Garden Grove,CA,US,33.77391,-117.94145,California
657,Huntington Beach,CA,US,33.6603,-117.99923,California
657,Orange,CA,US,33.78779,-117.85311,California
657,Placentia,CA,US,33.87224,-117.87034,California
657,Santa Ana,CA,US,33.74557,-117.86783,California
657,Stanton,CA,US,33.80252,-117.99312,California
657,North Tustin,CA,US,33.76446,-117.79394,California
657,Westminster,CA,US,33.75918,-118.00673,California
657,Yorba Linda,CA,US,33.88863,-117.81311,California
660,Sedalia,MO,US,38.70446,-93.22826,Missouri
661,Bakersfield,CA,US,35.37329,-119.01871,California
661,Delano,CA,US,35.76884,-119.24705,California
661,Lancaster,CA,US,34.69804,-118.13674,California
661,Oildale,CA,US,35.41968,-119.01955,California
661,Palmdale,CA,US,34.57943,-118.11646,California
661,Santa Clarita,CA,US,34.39166,-118.54259,California
661,Wasco,CA,US,35.59412,-119.34095,California
662,Clarksdale,MS,US,34.20011,-90.57093,Mississippi
662,Columbus,MS,US,33.49567,-88.42726,Mississippi
662,Greenville,MS,US,33.41012,-91.06177,Mississippi
662,Olive Branch,MS,US,34.96176,-89.82953,Mississippi
662,Southaven,MS,US,34.98898,-90.01259,Mississippi
662,Starkville,MS,US,33.45049,-88.81961,Mississippi
662,Tupelo,MS,US,34.25807,-88.70464,Mississippi
667,Annapolis,MD,US,38.97845,-76.49218,Maryland
667,Arbutus,MD,US,39.25455,-76.69997,Maryland
667,Arnold,MD,US,39.03206,-76.50274,Maryland
667,Baltimore,MD,US,39.29038,-76.61219,Maryland
667,Bel Air North,MD,US,39.55429,-76.37309,Maryland
667,Bel Air South,MD,US,39.50506,-76.31977,Maryland
667,Carney,MD,US,39.39427,-76.52358,Maryland
667,Catonsville,MD,US,39.27205,-76.73192,Maryland
667,Columbia,MD,US,39.24038,-76.83942,Maryland
667,Crofton,MD,US,39.00178,-76.68747,Maryland
667,Dundalk,MD,US,39.25066,-76.52052,Maryland
667,Edgewood,MD,US,39.41872,-76.2944,Maryland
667,Eldersburg,MD,US,39.40371,-76.95026,Maryland
667,West Elkridge,MD,US,39.20705,-76.72692,Maryland
667,Ellicott City,MD,US,39.26733,-76.79831,Maryland
667,Essex,MD,US,39.30927,-76.47496,Maryland
667,Glen Burnie,MD,US,39.16261,-76.62469,Maryland
667,Lochearn,MD,US,39.34066,-76.72219,Maryland
667,Middle River,MD,US,39.33427,-76.43941,Maryland
667,Milford Mill,MD,US,39.34788,-76.76997,Maryland
667,Odenton,MD,US,39.084,-76.70025,Maryland
667,Parkville,MD,US,39.37733,-76.53969,Maryland
667,Perry Hall,MD,US,39.41261,-76.46357,Maryland
667,Pikesville,MD,US,39.37427,-76.72247,Maryland
667,Randallstown,MD,US,39.36733,-76.79525,Maryland
667,Reisterstown,MD,US,39.46976,-76.8319,Maryland
667,Salisbury,MD,US,38.36067,-75.59937,Maryland
667,Severn,MD,US,39.13705,-76.6983,Maryland
667,Severna Park,MD,US,39.07039,-76.54524,Maryland
667,South Gate,MD,US,39.129,-76.6258,Maryland
667,Towson,MD,US,39.4015,-76.60191,Maryland
669,Campbell,CA,US,37.28717,-121.94996,California
669,Gilroy,CA,US,37.00578,-121.56828,California
669,Los Gatos,CA,US,37.22661,-121.97468,California
669,Milpitas,CA,US,37.42827,-121.90662,California
669,Morgan Hill,CA,US,37.1305,-121.65439,California
669,San Jose,CA,US,37.33939,-121.89496,California
669,Santa Clara,CA,US,37.35411,-121.95524,California
669,Saratoga,CA,US,37.26383,-122.02301,California
669,Sunnyvale,CA,US,37.36883,-122.03635,California
678,Alpharetta,GA,US,34.07538,-84.29409,Georgia
678,Atlanta,GA,US,33.749,-84.38798,Georgia
678,Candler-McAfee,GA,US,33.72672,-84.27246,Georgia
678,College Park,GA,US,33.65344,-84.44937,Georgia
678,Douglasville,GA,US,33.7515,-84.74771,Georgia
678,Duluth,GA,US,34.00288,-84.14464,Georgia
678,Dunwoody,GA,US,33.94621,-84.33465,Georgia
678,East Point,GA,US,33.67955,-84.43937,Georgia
678,Forest Park,GA,US,33.62205,-84.36909,Georgia
678,Gainesville,GA,US,34.29788,-83.82407,Georgia
678,Griffin,GA,US,33.24678,-84.26409,Georgia
678,Kennesaw,GA,US,34.02343,-84.61549,Georgia
678,Lawrenceville,GA,US,33.95621,-83.98796,Georgia
678,Mableton,GA,US,33.81872,-84.58243,Georgia
678,Marietta,GA,US,33.9526,-84.54993,Georgia
678,Peachtree City,GA,US,33.39678,-84.59576,Georgia
678,Redan,GA,US,33.74538,-84.13158,Georgia
678,Roswell,GA,US,34.02316,-84.36159,Georgia
678,Sandy Springs,GA,US,33.92427,-84.37854,Georgia
678,Smyrna,GA,US,33.88399,-84.51438,Georgia
678,Tucker,GA,US,33.85455,-84.21714,Georgia
681,South Charleston,WV,US,38.36843,-81.69957,West Virginia
681,Huntington,WV,US,38.41925,-82.44515,West Virginia
681,Morgantown,WV,US,39.62953,-79.9559,West Virginia
681,Parkersburg,WV,US,39.26674,-81.56151,West Virginia
681,Weirton,WV,US,40.41896,-80.58952,West Virginia
681,Wheeling,WV,US,40.06396,-80.72091,West Virginia
682,Arlington,TX,US,32.73569,-97.10807,Texas
682,Bedford,TX,US,32.84402,-97.14307,Texas
682,Benbrook,TX,US,32.67319,-97.46058,Texas
682,Burleson,TX,US,32.54208,-97.32085,Texas
682,Cleburne,TX,US,32.34764,-97.38668,Texas
682,Euless,TX,US,32.83707,-97.08195,Texas
682,Fort Worth,TX,US,32.72541,-97.32085,Texas
682,Grapevine,TX,US,32.93429,-97.07807,Texas
682,Haltom City,TX,US,32.79957,-97.26918,Texas
682,Hurst,TX,US,32.82346,-97.17057,Texas
682,Keller,TX,US,32.93457,-97.25168,Texas
682,Mansfield,TX,US,32.56319,-97.14168,Texas
682,North Richland Hills,TX,US,32.8343,-97.2289,Texas
682,Southlake,TX,US,32.94124,-97.13418,Texas
682,Watauga,TX,US,32.85791,-97.25474,Texas
701,Bismarck,ND,US,46.80833,-100.78374,North Dakota
701,West Fargo,ND,US,46.87497,-96.90036,North Dakota
701,Grand Forks,ND,US,47.92526,-97.03285,North Dakota
701,Minot,ND,US,48.23251,-101.29627,North Dakota
702,Henderson,NV,US,36.0397,-114.98194,Nevada
702,North Las Vegas,NV,US,36.19886,-115.1175,Nevada
702,Paradise,NV,US,36.09719,-115.14666,Nevada
702,Spring Valley,NV,US,36.10803,-115.245,Nevada
702,Sunrise Manor,NV,US,36.21108,-115.07306,Nevada
702,Winchester,NV,US,36.12997,-115.11889,Nevada
703,Alexandria,VA,US,38.80484,-77.04692,Virginia
703,Annandale,VA,US,38.83039,-77.19637,Virginia
703,Arlington,VA,US,38.88101,-77.10428,Virginia
703,Burke,VA,US,38.79345,-77.27165,Virginia
703,Centreville,VA,US,38.84039,-77.42888,Virginia
703,Chantilly,VA,US,38.89428,-77.4311,Virginia
703,Dale City,VA,US,38.63706,-77.31109,Virginia
703,Fairfax,VA,US,38.84622,-77.30637,Virginia
703,Franconia,VA,US,38.78206,-77.14637,Virginia
703,Groveton,VA,US,38.76734,-77.0847,Virginia
703,Herndon,VA,US,38.96955,-77.3861,Virginia
703,Lake Ridge,VA,US,38.68789,-77.29776,Virginia
703,Leesburg,VA,US,39.11566,-77.5636,Virginia
703,Manassas,VA,US,38.75095,-77.47527,Virginia
703,McLean,VA,US,38.93428,-77.17748,Virginia
703,Mount Vernon,VA,US,38.71919,-77.10726,Virginia
703,Oakton,VA,US,38.88095,-77.30082,Virginia
703,Reston,VA,US,38.96872,-77.3411,Virginia
703,West Springfield,VA,US,38.77261,-77.22109,Virginia
704,Charlotte,NC,US,35.22709,-80.84313,North Carolina
704,Concord,NC,US,35.40888,-80.58158,North Carolina
704,South Gastonia,NC,US,35.2193,-81.20563,North Carolina
704,Huntersville,NC,US,35.41069,-80.84285,North Carolina
704,Kannapolis,NC,US,35.48736,-80.62173,North Carolina
704,Matthews,NC,US,35.11681,-80.72368,North Carolina
704,Monroe,NC,US,34.98543,-80.54951,North Carolina
704,Salisbury,NC,US,35.67097,-80.47423,North Carolina
704,Statesville,NC,US,35.78264,-80.8873,North Carolina
706,Athens,GA,US,33.96095,-83.37794,Georgia
706,Augusta,GA,US,33.47097,-81.97484,Georgia
706,Columbus,GA,US,32.46098,-84.98771,Georgia
706,Dalton,GA,US,34.7698,-84.97022,Georgia
706,La Grange,GA,US,33.03929,-85.03133,Georgia
706,Martinez,GA,US,33.51736,-82.07567,Georgia
706,Rome,GA,US,34.25704,-85.16467,Georgia
707,Benicia,CA,US,38.04937,-122.15858,California
707,Eureka,CA,US,40.80207,-124.16367,California
707,Fairfield,CA,US,38.24936,-122.03997,California
707,Napa,CA,US,38.29714,-122.28553,California
707,Petaluma,CA,US,38.23242,-122.63665,California
707,Rohnert Park,CA,US,38.33964,-122.7011,California
707,Santa Rosa,CA,US,38.44047,-122.71443,California
707,Suisun,CA,US,38.23825,-122.04024,California
707,Vacaville,CA,US,38.35658,-121.98774,California
707,Vallejo,CA,US,38.10409,-122.25664,California
707,Windsor,CA,US,38.54713,-122.81638,California
708,Bellwood,IL,US,41.88142,-87.88312,Illinois
708,Berwyn,IL,US,41.85059,-87.79367,Illinois
708,Blue Island,IL,US,41.65726,-87.68005,Illinois
708,Burbank,IL,US,41.73392,-87.7795,Illinois
708,Calumet City,IL,US,41.61559,-87.52949,Illinois
708,Chicago Heights,IL,US,41.50615,-87.6356,Illinois
708,Cicero,IL,US,41.84559,-87.75394,Illinois
708,Dolton,IL,US,41.63892,-87.60727,Illinois
708,Elmwood Park,IL,US,41.92114,-87.80923,Illinois
708,Evergreen Park,IL,US,41.72059,-87.70172,Illinois
708,Harvey,IL,US,41.61003,-87.64671,Illinois
708,Lansing,IL,US,41.56476,-87.53893,Illinois
708,Maywood,IL,US,41.8792,-87.84312,Illinois
708,Melrose Park,IL,US,41.90059,-87.85673,Illinois
708,Oak Forest,IL,US,41.60281,-87.74394,Illinois
708,Oak Lawn,IL,US,41.71087,-87.75811,Illinois
708,Oak Park,IL,US,41.88503,-87.7845,Illinois
708,Orland Park,IL,US,41.63031,-87.85394,Illinois
708,Park Forest,IL,US,41.49142,-87.67449,Illinois
708,South Holland,IL,US,41.60087,-87.60699,Illinois
708,Tinley Park,IL,US,41.57337,-87.78449,Illinois
712,Council Bluffs,IA,US,41.26194,-95.86083,Iowa
712,Sioux City,IA,US,42.49999,-96.40031,Iowa
713,Alvin,TX,US,29.42385,-95.2441,Texas
713,Atascocita,TX,US,29.99883,-95.1766,Texas
713,Baytown,TX,US,29.7355,-94.97743,Texas
713,Channelview,TX,US,29.77606,-95.11465,Texas
713,Cloverleaf,TX,US,29.77828,-95.17188,Texas
713,Deer Park,TX,US,29.70523,-95.12382,Texas
713,Friendswood,TX,US,29.5294,-95.20104,Texas
713,South Houston,TX,US,29.66301,-95.23549,Texas
713,La Porte,TX,US,29.66578,-95.01937,Texas
713,League City,TX,US,29.50745,-95.09493,Texas
713,Mission Bend,TX,US,29.69384,-95.66495,Texas
713,Missouri City,TX,US,29.61857,-95.53772,Texas
713,Pasadena,TX,US,29.69106,-95.2091,Texas
713,Pearland,TX,US,29.56357,-95.28605,Texas
713,Rosenberg,TX,US,29.55718,-95.80856,Texas
713,Spring,TX,US,30.07994,-95.41716,Texas
713,Sugar Land,TX,US,29.61968,-95.63495,Texas
713,The Woodlands,TX,US,30.15799,-95.48938,Texas
714,Anaheim,CA,US,33.83529,-117.9145,California
714,Brea,CA,US,33.91668,-117.90006,California
714,Buena Park,CA,US,33.86751,-117.99812,California
714,Cypress,CA,US,33.81696,-118.03729,California
714,Fountain Valley,CA,US,33.70918,-117.95367,California
714,Fullerton,CA,US,33.87029,-117.92534,California
714,Garden Grove,CA,US,33.77391,-117.94145,California
714,Huntington Beach,CA,US,33.6603,-117.99923,California
714,Orange,CA,US,33.78779,-117.85311,California
714,Placentia,CA,US,33.87224,-117.87034,California
714,Santa Ana,CA,US,33.74557,-117.86783,California
714,Stanton,CA,US,33.80252,-117.99312,California
714,North Tustin,CA,US,33.76446,-117.79394,California
714,Westminster,CA,US,33.75918,-118.00673,California
714,Yorba Linda,CA,US,33.88863,-117.81311,California
715,Eau Claire,WI,US,44.81135,-91.49849,Wisconsin
715,Stevens Point,WI,US,44.52358,-89.57456,Wisconsin
715,Superior,WI,US,46.72077,-92.10408,Wisconsin
715,Wausau,WI,US,44.95914,-89.63012,Wisconsin
716,Buffalo,NY,US,42.88645,-78.87837,New York
716,Cheektowaga,NY,US,42.90339,-78.75475,New York
716,Jamestown,NY,US,42.097,-79.23533,New York
716,South Lockport,NY,US,43.15006,-78.6967,New York
716,Niagara Falls,NY,US,43.0945,-79.05671,New York
716,North Tonawanda,NY,US,43.03867,-78.8642,New York
716,Tonawanda,NY,US,42.98499,-78.87798,New York
716,West Seneca,NY,US,42.85006,-78.79975,New York
717,Harrisburg,PA,US,40.2737,-76.88442,Pennsylvania
717,Lancaster,PA,US,40.03788,-76.30551,Pennsylvania
717,Lebanon,PA,US,40.34093,-76.41135,Pennsylvania
717,York,PA,US,39.9626,-76.72774,Pennsylvania
718,The Bronx,NY,US,40.84985,-73.86641,New York
718,Brooklyn,NY,US,40.6501,-73.94958,New York
718,New York City,NY,US,40.71427,-74.00597,New York
718,Borough of Queens,NY,US,40.68149,-73.83652,New York
718,Staten Island,NY,US,40.56233,-74.13986,New York
719,Colorado Springs,CO,US,38.83388,-104.82136,Colorado
719,Pueblo West,CO,US,38.35,-104.72275,Colorado
719,Security-Widefield,CO,US,38.74728,-104.71439,Colorado
720,Arvada,CO,US,39.80276,-105.08748,Colorado
720,Aurora,CO,US,39.72943,-104.83192,Colorado
720,Boulder,CO,US,40.01499,-105.27055,Colorado
720,Brighton,CO,US,39.98526,-104.82053,Colorado
720,Broomfield,CO,US,39.92054,-105.08665,Colorado
720,Castle Rock,CO,US,39.37221,-104.85609,Colorado
720,Castlewood,CO,US,39.58471,-104.90109,Colorado
720,Columbine,CO,US,39.58777,-105.06943,Colorado
720,Commerce City,CO,US,39.80832,-104.93387,Colorado
720,Denver,CO,US,39.73915,-104.9847,Colorado
720,Englewood,CO,US,39.64777,-104.98776,Colorado
720,Highlands Ranch,CO,US,39.55388,-104.96943,Colorado
720,Ken Caryl,CO,US,39.57582,-105.11221,Colorado
720,Lafayette,CO,US,39.9936,-105.08971,Colorado
720,Lakewood,CO,US,39.70471,-105.08137,Colorado
720,Littleton,CO,US,39.61332,-105.01665,Colorado
720,Longmont,CO,US,40.16721,-105.10193,Colorado
720,Loveland,CO,US,40.39776,-105.07498,Colorado
720,Northglenn,CO,US,39.88554,-104.9872,Colorado
720,Parker,CO,US,39.5186,-104.76136,Colorado
720,Southglenn,CO,US,39.58721,-104.95276,Colorado
720,Thornton,CO,US,39.86804,-104.97192,Colorado
720,Westminster,CO,US,39.83665,-105.0372,Colorado
720,Wheat Ridge,CO,US,39.7661,-105.07721,Colorado
724,Monroeville,PA,US,40.42118,-79.7881,Pennsylvania
724,New Castle,PA,US,41.00367,-80.34701,Pennsylvania
724,Plum,PA,US,40.50035,-79.74949,Pennsylvania
724,Upper Saint Clair,PA,US,40.3359,-80.08339,Pennsylvania
725,Henderson,NV,US,36.0397,-114.98194,Nevada
725,North Las Vegas,NV,US,36.19886,-115.1175,Nevada
725,Paradise,NV,US,36.09719,-115.14666,Nevada
725,Spring Valley,NV,US,36.10803,-115.245,Nevada
725,Sunrise Manor,NV,US,36.21108,-115.07306,Nevada
725,Winchester,NV,US,36.12997,-115.11889,Nevada
727,Bayonet Point,FL,US,28.32667,-82.68343,Florida
727,Clearwater,FL,US,27.96585,-82.8001,Florida
727,Dunedin,FL,US,28.0199,-82.77323,Florida
727,Holiday,FL,US,28.18779,-82.73955,Florida
727,Largo,FL,US,27.90979,-82.78842,Florida
727,Lealman,FL,US,27.82114,-82.67927,Florida
727,Palm Harbor,FL,US,28.07807,-82.76371,Florida
727,Pinellas Park,FL,US,27.8428,-82.69954,Florida
727,Saint Petersburg,FL,US,27.77086,-82.67927,Florida
727,Tarpon Springs,FL,US,28.14612,-82.75677,Florida
731,Jackson,TN,US,35.61452,-88.81395,Tennessee
732,Carteret,NJ,US,40.57733,-74.2282,New Jersey
732,East Brunswick,NJ,US,40.42788,-74.41598,New Jersey
732,Edison,NJ,US,40.51872,-74.4121,New Jersey
732,Lakewood,NJ,US,40.09789,-74.21764,New Jersey
732,West Long Branch,NJ,US,40.29039,-74.01764,New Jersey
732,New Brunswick,NJ,US,40.48622,-74.45182,New Jersey
732,North Plainfield,NJ,US,40.6301,-74.42737,New Jersey
732,South Old Bridge,NJ,US,40.40816,-74.35432,New Jersey
732,Perth Amboy,NJ,US,40.50677,-74.26542,New Jersey
732,Rahway,NJ,US,40.60816,-74.27765,New Jersey
732,Sayreville,NJ,US,40.45927,-74.36098,New Jersey
732,Somerset,NJ,US,40.4976,-74.48849,New Jersey
732,Toms River,NJ,US,39.95373,-74.19792,New Jersey
734,Ann Arbor,MI,US,42.27756,-83.74088,Michigan
734,Canton,MI,US,42.30865,-83.48216,Michigan
734,Garden City,MI,US,42.32559,-83.33104,Michigan
734,Livonia,MI,US,42.36837,-83.35271,Michigan
734,South Monroe,MI,US,41.89588,-83.41771,Michigan
734,Plymouth,MI,US,42.37143,-83.47021,Michigan
734,Romulus,MI,US,42.22226,-83.3966,Michigan
734,Southgate,MI,US,42.21393,-83.19381,Michigan
734,Westland,MI,US,42.3242,-83.40021,Michigan
734,Wyandotte,MI,US,42.21421,-83.14992,Michigan
734,Ypsilanti,MI,US,42.24115,-83.61299,Michigan
737,Austin,TX,US,30.26715,-97.74306,Texas
737,Cedar Park,TX,US,30.5052,-97.82029,Texas
737,Georgetown,TX,US,30.63269,-97.67723,Texas
737,Round Rock,TX,US,30.50826,-97.6789,Texas
737,San Marcos,TX,US,29.88327,-97.94139,Texas
740,Athens,OH,US,39.32924,-82.10126,Ohio
740,Chillicothe,OH,US,39.33312,-82.9824,Ohio
740,Delaware,OH,US,40.29867,-83.06797,Ohio
740,Lancaster,OH,US,39.71368,-82.59933,Ohio
740,Marion,OH,US,40.58867,-83.12852,Ohio
740,Newark,OH,US,40.05812,-82.40126,Ohio
740,Portsmouth,OH,US,38.73174,-82.99767,Ohio
740,Zanesville,OH,US,39.94035,-82.01319,Ohio
743,Asheboro,NC,US,35.70791,-79.81364,North Carolina
743,Burlington,NC,US,36.09569,-79.4378,North Carolina
743,Greensboro,NC,US,36.07264,-79.79198,North Carolina
743,High Point,NC,US,35.95569,-80.00532,North Carolina
743,Winston-Salem,NC,US,36.09986,-80.24422,North Carolina
747,Agoura Hills,CA,US,34.13639,-118.77453,California
747,Burbank,CA,US,34.18084,-118.30897,California
747,Calabasas,CA,US,34.15778,-118.63842,California
747,North Glendale,CA,US,34.16056,-118.26452,California
747,La Caada Flintridge,CA,US,34.19917,-118.18785,California
747,San Fernando,CA,US,34.28195,-118.43897,California
754,Coconut Creek,FL,US,26.25175,-80.17894,Florida
754,Cooper City,FL,US,26.05731,-80.27172,Florida
754,Coral Springs,FL,US,26.27119,-80.2706,Florida
754,Dania Beach,FL,US,26.05231,-80.14393,Florida
754,Davie,FL,US,26.06287,-80.2331,Florida
754,Deerfield Beach,FL,US,26.31841,-80.09977,Florida
754,Fort Lauderdale,FL,US,26.12231,-80.14338,Florida
754,Hallandale Beach,FL,US,25.9812,-80.14838,Florida
754,Hollywood,FL,US,26.0112,-80.14949,Florida
754,Lauderdale Lakes,FL,US,26.16647,-80.20838,Florida
754,Lauderhill,FL,US,26.14036,-80.21338,Florida
754,Margate,FL,US,26.24453,-80.20644,Florida
754,North Lauderdale,FL,US,26.2173,-80.22588,Florida
754,Pembroke Pines,FL,US,26.00315,-80.22394,Florida
754,Plantation,FL,US,26.13421,-80.23184,Florida
754,Pompano Beach,FL,US,26.23786,-80.12477,Florida
754,Sunrise,FL,US,26.13397,-80.1131,Florida
754,Tamarac,FL,US,26.21286,-80.24977,Florida
754,Weston,FL,US,26.10037,-80.39977,Florida
757,Chesapeake,VA,US,36.81904,-76.27494,Virginia
757,Hampton,VA,US,37.02987,-76.34522,Virginia
757,Newport News,VA,US,36.97876,-76.428,Virginia
757,Norfolk,VA,US,36.84681,-76.28522,Virginia
757,Portsmouth,VA,US,36.83543,-76.29827,Virginia
757,Suffolk,VA,US,36.72836,-76.58496,Virginia
757,Virginia Beach,VA,US,36.85293,-75.97799,Virginia
760,Apple Valley,CA,US,34.50083,-117.18588,California
760,Barstow,CA,US,34.89859,-117.02282,California
760,Brawley,CA,US,32.97866,-115.53027,California
760,Calexico,CA,US,32.67895,-115.49888,California
760,Carlsbad,CA,US,33.15809,-117.35059,California
760,Cathedral City,CA,US,33.77974,-116.46529,California
760,Coachella,CA,US,33.6803,-116.17389,California
760,El Centro,CA,US,32.792,-115.56305,California
760,Encinitas,CA,US,33.03699,-117.29198,California
760,Escondido,CA,US,33.11921,-117.08642,California
760,Fallbrook,CA,US,33.37642,-117.25115,California
760,Hesperia,CA,US,34.42639,-117.30088,California
760,Indio,CA,US,33.7207,-116.21677,California
760,La Quinta,CA,US,33.66336,-116.31001,California
760,Oceanside,CA,US,33.19587,-117.37948,California
760,Palm Desert,CA,US,33.72255,-116.37697,California
760,Palm Springs,CA,US,33.8303,-116.54529,California
760,Ridgecrest,CA,US,35.62246,-117.6709,California
760,San Marcos,CA,US,33.14337,-117.16614,California
760,Victorville,CA,US,34.53611,-117.29116,California
760,Vista,CA,US,33.20004,-117.24254,California
762,Athens,GA,US,33.96095,-83.37794,Georgia
762,Augusta,GA,US,33.47097,-81.97484,Georgia
762,Columbus,GA,US,32.46098,-84.98771,Georgia
762,Dalton,GA,US,34.7698,-84.97022,Georgia
762,La Grange,GA,US,33.03929,-85.03133,Georgia
762,Martinez,GA,US,33.51736,-82.07567,Georgia
762,Rome,GA,US,34.25704,-85.16467,Georgia
763,Blaine,MN,US,45.1608,-93.23495,Minnesota
763,Brooklyn Center,MN,US,45.07608,-93.33273,Minnesota
763,Brooklyn Park,MN,US,45.09413,-93.35634,Minnesota
763,Champlin,MN,US,45.18885,-93.39745,Minnesota
763,West Coon Rapids,MN,US,45.15969,-93.34967,Minnesota
763,Fridley,MN,US,45.08608,-93.26328,Minnesota
763,Maple Grove,MN,US,45.07246,-93.45579,Minnesota
763,New Hope,MN,US,45.03802,-93.38662,Minnesota
763,Plymouth,MN,US,45.01052,-93.45551,Minnesota
765,Anderson,IN,US,40.10532,-85.68025,Indiana
765,Kokomo,IN,US,40.48643,-86.1336,Indiana
765,West Lafayette,IN,US,40.42587,-86.90807,Indiana
765,Marion,IN,US,40.55837,-85.65914,Indiana
765,Muncie,IN,US,40.19338,-85.38636,Indiana
765,Richmond,IN,US,39.82894,-84.89024,Indiana
769,Clinton,MS,US,32.34153,-90.32176,Mississippi
769,West Hattiesburg,MS,US,31.31906,-89.37506,Mississippi
769,Jackson,MS,US,32.29876,-90.18481,Mississippi
769,Meridian,MS,US,32.36431,-88.70366,Mississippi
769,Pearl,MS,US,32.27459,-90.13203,Mississippi
769,Ridgeland,MS,US,32.42848,-90.13231,Mississippi
769,Vicksburg,MS,US,32.35265,-90.87788,Mississippi
770,Alpharetta,GA,US,34.07538,-84.29409,Georgia
770,Atlanta,GA,US,33.749,-84.38798,Georgia
770,College Park,GA,US,33.65344,-84.44937,Georgia
770,Douglasville,GA,US,33.7515,-84.74771,Georgia
770,Duluth,GA,US,34.00288,-84.14464,Georgia
770,Dunwoody,GA,US,33.94621,-84.33465,Georgia
770,Forest Park,GA,US,33.62205,-84.36909,Georgia
770,Gainesville,GA,US,34.29788,-83.82407,Georgia
770,Griffin,GA,US,33.24678,-84.26409,Georgia
770,Kennesaw,GA,US,34.02343,-84.61549,Georgia
770,Lawrenceville,GA,US,33.95621,-83.98796,Georgia
770,Mableton,GA,US,33.81872,-84.58243,Georgia
770,Marietta,GA,US,33.9526,-84.54993,Georgia
770,Peachtree City,GA,US,33.39678,-84.59576,Georgia
770,Redan,GA,US,33.74538,-84.13158,Georgia
770,Roswell,GA,US,34.02316,-84.36159,Georgia
770,Sandy Springs,GA,US,33.92427,-84.37854,Georgia
770,Smyrna,GA,US,33.88399,-84.51438,Georgia
770,Tucker,GA,US,33.85455,-84.21714,Georgia
772,Fort Pierce South,FL,US,27.40962,-80.35483,Florida
772,Palm City,FL,US,27.16783,-80.26616,Florida
772,Port Saint Lucie,FL,US,27.29393,-80.35033,Florida
772,Vero Beach South,FL,US,27.61638,-80.41308,Florida
773,West Chicago,IL,US,41.88475,-88.20396,Illinois
774,Attleboro,MA,US,41.94454,-71.28561,Massachusetts
774,Barnstable,MA,US,41.70011,-70.29947,Massachusetts
774,Brockton,MA,US,42.08343,-71.01838,Massachusetts
774,Fall River,MA,US,41.70149,-71.15505,Massachusetts
774,Framingham,MA,US,42.27926,-71.41617,Massachusetts
774,Franklin,MA,US,42.08343,-71.39673,Massachusetts
774,Marlborough,MA,US,42.34593,-71.55229,Massachusetts
774,Milford,MA,US,42.13982,-71.51617,Massachusetts
774,New Bedford,MA,US,41.63622,-70.93421,Massachusetts
774,Taunton,MA,US,41.9001,-71.08977,Massachusetts
774,Worcester,MA,US,42.26259,-71.80229,Massachusetts
775,Carson City,NV,US,39.1638,-119.7674,Nevada
775,Pahrump,NV,US,36.20829,-115.98391,Nevada
775,Reno,NV,US,39.52963,-119.8138,Nevada
775,Sparks,NV,US,39.53491,-119.75269,Nevada
779,Belvidere,IL,US,42.26391,-88.84427,Illinois
779,Crystal Lake,IL,US,42.24113,-88.3162,Illinois
779,DeKalb,IL,US,41.92947,-88.75036,Illinois
779,Freeport,IL,US,42.29669,-89.62123,Illinois
779,Joliet,IL,US,41.52519,-88.0834,Illinois
779,Kankakee,IL,US,41.12003,-87.86115,Illinois
779,Loves Park,IL,US,42.32002,-89.05816,Illinois
779,Machesney Park,IL,US,42.34724,-89.039,Illinois
779,McHenry,IL,US,42.33335,-88.26675,Illinois
779,Rockford,IL,US,42.27113,-89.094,Illinois
779,Romeoville,IL,US,41.64753,-88.08951,Illinois
779,Woodstock,IL,US,42.31474,-88.4487,Illinois
781,Arlington,MA,US,42.41537,-71.15644,Massachusetts
781,Braintree,MA,US,42.22232,-70.99949,Massachusetts
781,Burlington,MA,US,42.50482,-71.19561,Massachusetts
781,Dedham,MA,US,42.24177,-71.16616,Massachusetts
781,Lexington,MA,US,42.44732,-71.2245,Massachusetts
781,Lynn,MA,US,42.46676,-70.94949,Massachusetts
781,Malden,MA,US,42.4251,-71.06616,Massachusetts
781,Marblehead,MA,US,42.5001,-70.85783,Massachusetts
781,Medford,MA,US,42.41843,-71.10616,Massachusetts
781,Melrose,MA,US,42.45843,-71.06616,Massachusetts
781,Needham,MA,US,42.28343,-71.23283,Massachusetts
781,Norwood,MA,US,42.19454,-71.1995,Massachusetts
781,Randolph,MA,US,42.1626,-71.04116,Massachusetts
781,Reading,MA,US,42.52565,-71.09533,Massachusetts
781,Revere,MA,US,42.40843,-71.01199,Massachusetts
781,Saugus,MA,US,42.46482,-71.01005,Massachusetts
781,Stoneham,MA,US,42.4801,-71.0995,Massachusetts
781,Wakefield,MA,US,42.50648,-71.07283,Massachusetts
781,Waltham,MA,US,42.37649,-71.23561,Massachusetts
781,Wellesley,MA,US,42.29649,-71.29256,Massachusetts
781,Weymouth,MA,US,42.22093,-70.93977,Massachusetts
781,Winchester,MA,US,42.45232,-71.137,Massachusetts
781,Woburn,MA,US,42.47926,-71.15228,Massachusetts
785,Hays,KS,US,38.87918,-99.32677,Kansas
785,Lawrence,KS,US,38.97167,-95.23525,Kansas
785,Manhattan,KS,US,39.18361,-96.57167,Kansas
785,Salina,KS,US,38.84028,-97.61142,Kansas
785,Topeka,KS,US,39.04833,-95.67804,Kansas
786,Aventura,FL,US,25.95648,-80.13921,Florida
786,Carol City,FL,US,25.94065,-80.2456,Florida
786,Coral Gables,FL,US,25.72149,-80.26838,Florida
786,Coral Terrace,FL,US,25.74593,-80.3045,Florida
786,Country Club,FL,US,25.94815,-80.317,Florida
786,Cutler Ridge,FL,US,25.58066,-80.34672,Florida
786,Doral,FL,US,25.81954,-80.35533,Florida
786,Golden Glades,FL,US,25.91176,-80.20033,Florida
786,Hialeah,FL,US,25.8576,-80.27811,Florida
786,Homestead,FL,US,25.46872,-80.47756,Florida
786,Kendale Lakes,FL,US,25.70816,-80.407,Florida
786,Kendall West,FL,US,25.7065,-80.4388,Florida
786,Key West,FL,US,24.55524,-81.78163,Florida
786,Leisure City,FL,US,25.49539,-80.42922,Florida
786,West Miami,FL,US,25.76343,-80.29616,Florida
786,North Miami Beach,FL,US,25.93315,-80.16255,Florida
786,Miami Lakes,FL,US,25.90871,-80.30866,Florida
786,Miramar,FL,US,25.98731,-80.23227,Florida
786,Norland,FL,US,25.94898,-80.21227,Florida
786,North Miami,FL,US,25.89009,-80.18671,Florida
786,Richmond West,FL,US,25.6105,-80.42971,Florida
786,Richmond Heights,FL,US,25.63149,-80.36894,Florida
786,South Miami Heights,FL,US,25.59761,-80.38061,Florida
786,Tamiami,FL,US,25.75871,-80.39839,Florida
786,West Little River,FL,US,25.85704,-80.23699,Florida
786,Westchester,FL,US,25.75482,-80.32727,Florida
801,American Fork,UT,US,40.3769,-111.79576,Utah
801,West Bountiful,UT,US,40.89383,-111.90188,Utah
801,Clearfield,UT,US,41.11078,-112.02605,Utah
801,Cottonwood Heights,UT,US,40.61967,-111.81021,Utah
801,Draper,UT,US,40.52467,-111.86382,Utah
801,East Millcreek,UT,US,40.69995,-111.81049,Utah
801,Kaysville,UT,US,41.03522,-111.93855,Utah
801,Kearns,UT,US,40.65995,-111.99633,Utah
801,Layton,UT,US,41.06022,-111.97105,Utah
801,Magna,UT,US,40.70911,-112.10161,Utah
801,Midvale,UT,US,40.61106,-111.89994,Utah
801,Millcreek,UT,US,40.68689,-111.87549,Utah
801,Murray,UT,US,40.66689,-111.88799,Utah
801,South Ogden,UT,US,41.19189,-111.97133,Utah
801,Orem,UT,US,40.2969,-111.69465,Utah
801,Pleasant Grove,UT,US,40.36412,-111.73854,Utah
801,Provo,UT,US,40.23384,-111.65853,Utah
801,Riverton,UT,US,40.52189,-111.9391,Utah
801,Roy,UT,US,41.16161,-112.02633,Utah
801,Salt Lake City,UT,US,40.76078,-111.89105,Utah
801,Sandy City,UT,US,40.59161,-111.8841,Utah
801,South Jordan,UT,US,40.56217,-111.92966,Utah
801,South Salt Lake,UT,US,40.71884,-111.88827,Utah
801,Spanish Fork,UT,US,40.11496,-111.65492,Utah
801,Springville,UT,US,40.16523,-111.61075,Utah
801,Taylorsville,UT,US,40.66772,-111.93883,Utah
801,West Jordan,UT,US,40.60967,-111.9391,Utah
801,West Valley City,UT,US,40.69161,-112.00105,Utah
802,South Burlington,VT,US,44.46699,-73.17096,Vermont
802,Montpelier,VT,US,44.26006,-72.57539,Vermont
803,Aiken,SC,US,33.56042,-81.71955,South Carolina
803,West Columbia,SC,US,33.99349,-81.07398,South Carolina
803,Rock Hill,SC,US,34.92487,-81.02508,South Carolina
803,Saint Andrews,SC,US,34.04543,-81.12926,South Carolina
803,Sumter,SC,US,33.92044,-80.34147,South Carolina
804,Hopewell,VA,US,37.30432,-77.2872,Virginia
804,Mechanicsville,VA,US,37.60876,-77.37331,Virginia
804,Petersburg,VA,US,37.22793,-77.40193,Virginia
804,Richmond,VA,US,37.55376,-77.46026,Virginia
804,Tuckahoe,VA,US,37.59015,-77.55638,Virginia
805,Atascadero,CA,US,35.48942,-120.67073,California
805,Camarillo,CA,US,34.21639,-119.0376,California
805,Paso Robles,CA,US,35.62664,-120.691,California
805,Goleta,CA,US,34.43583,-119.82764,California
805,Lompoc,CA,US,34.63915,-120.45794,California
805,Moorpark,CA,US,34.28556,-118.88204,California
805,Orcutt,CA,US,34.86526,-120.436,California
805,Oxnard,CA,US,34.1975,-119.17705,California
805,Port Hueneme,CA,US,34.14778,-119.19511,California
805,Ventura,CA,US,34.27834,-119.29317,California
805,San Luis Obispo,CA,US,35.28275,-120.65962,California
805,Santa Barbara,CA,US,34.42083,-119.69819,California
805,Santa Maria,CA,US,34.95303,-120.43572,California
805,Santa Paula,CA,US,34.35417,-119.05927,California
805,Simi Valley,CA,US,34.26945,-118.78148,California
805,Thousand Oaks,CA,US,34.17056,-118.83759,California
806,Amarillo,TX,US,35.222,-101.8313,Texas
806,Lubbock,TX,US,33.57786,-101.85517,Texas
806,Plainview,TX,US,34.18479,-101.70684,Texas
808,Hilo,HI,US,19.72991,-155.09073,Hawaii
808,Honolulu,HI,US,21.30694,-157.85833,Hawaii
808,Kahului,HI,US,20.88953,-156.47432,Hawaii
808,Kailua-Kona,HI,US,19.63927,-155.99024,Hawaii
808,Kneohe,HI,US,21.39994,-157.79895,Hawaii
808,Mililani Town,HI,US,21.45,-158.00111,Hawaii
808,Pearl City,HI,US,21.39734,-157.97516,Hawaii
808,Waimalu,HI,US,21.40472,-157.94333,Hawaii
808,Waipahu,HI,US,21.38667,-158.00917,Hawaii
810,Burton,MI,US,42.99947,-83.61634,Michigan
810,Flint,MI,US,43.01253,-83.68746,Michigan
810,Port Huron,MI,US,42.97086,-82.42491,Michigan
812,Bloomington,IN,US,39.16533,-86.52639,Indiana
812,Clarksville,IN,US,38.29674,-85.75996,Indiana
812,Columbus,IN,US,39.20144,-85.92138,Indiana
812,Evansville,IN,US,37.97476,-87.55585,Indiana
812,Jeffersonville,IN,US,38.27757,-85.73718,Indiana
812,New Albany,IN,US,38.28562,-85.82413,Indiana
812,Terre Haute,IN,US,39.4667,-87.41391,Indiana
813,Brandon,FL,US,27.9378,-82.28592,Florida
813,Citrus Park,FL,US,28.07835,-82.56982,Florida
813,Greater Northdale,FL,US,28.10545,-82.52594,Florida
813,Lake Magdalene,FL,US,28.07418,-82.47176,Florida
813,Land O' Lakes,FL,US,28.2189,-82.45759,Florida
813,Plant City,FL,US,28.01888,-82.11469,Florida
813,Tampa,FL,US,27.94752,-82.45843,Florida
813,Temple Terrace,FL,US,28.0353,-82.38926,Florida
813,Town 'n' Country,FL,US,28.01057,-82.57732,Florida
814,Altoona,PA,US,40.51868,-78.39474,Pennsylvania
814,Erie,PA,US,42.12922,-80.08506,Pennsylvania
814,Johnstown,PA,US,40.32674,-78.92197,Pennsylvania
814,State College,PA,US,40.79339,-77.86,Pennsylvania
815,Belvidere,IL,US,42.26391,-88.84427,Illinois
815,Crystal Lake,IL,US,42.24113,-88.3162,Illinois
815,DeKalb,IL,US,41.92947,-88.75036,Illinois
815,Freeport,IL,US,42.29669,-89.62123,Illinois
815,Joliet,IL,US,41.52519,-88.0834,Illinois
815,Kankakee,IL,US,41.12003,-87.86115,Illinois
815,Loves Park,IL,US,42.32002,-89.05816,Illinois
815,Machesney Park,IL,US,42.34724,-89.039,Illinois
815,McHenry,IL,US,42.33335,-88.26675,Illinois
815,Rockford,IL,US,42.27113,-89.094,Illinois
815,Romeoville,IL,US,41.64753,-88.08951,Illinois
815,Woodstock,IL,US,42.31474,-88.4487,Illinois
816,Belton,MO,US,38.81195,-94.5319,Missouri
816,Blue Springs,MO,US,39.01695,-94.28161,Missouri
816,Gladstone,MO,US,39.20389,-94.55468,Missouri
816,Grandview,MO,US,38.88584,-94.53301,Missouri
816,Independence,MO,US,39.09112,-94.41551,Missouri
816,Kansas City,MO,US,39.09973,-94.57857,Missouri
816,Lee's Summit,MO,US,38.91084,-94.38217,Missouri
816,Liberty,MO,US,39.24611,-94.41912,Missouri
816,Raytown,MO,US,39.00862,-94.46356,Missouri
816,Saint Joseph,MO,US,39.76861,-94.84663,Missouri
817,Arlington,TX,US,32.73569,-97.10807,Texas
817,Bedford,TX,US,32.84402,-97.14307,Texas
817,Benbrook,TX,US,32.67319,-97.46058,Texas
817,Burleson,TX,US,32.54208,-97.32085,Texas
817,Cleburne,TX,US,32.34764,-97.38668,Texas
817,Euless,TX,US,32.83707,-97.08195,Texas
817,Fort Worth,TX,US,32.72541,-97.32085,Texas
817,Grapevine,TX,US,32.93429,-97.07807,Texas
817,Haltom City,TX,US,32.79957,-97.26918,Texas
817,Hurst,TX,US,32.82346,-97.17057,Texas
817,Keller,TX,US,32.93457,-97.25168,Texas
817,Mansfield,TX,US,32.56319,-97.14168,Texas
817,North Richland Hills,TX,US,32.8343,-97.2289,Texas
817,Southlake,TX,US,32.94124,-97.13418,Texas
817,Watauga,TX,US,32.85791,-97.25474,Texas
818,Agoura Hills,CA,US,34.13639,-118.77453,California
818,Burbank,CA,US,34.18084,-118.30897,California
818,Calabasas,CA,US,34.15778,-118.63842,California
818,North Glendale,CA,US,34.16056,-118.26452,California
818,La Caada Flintridge,CA,US,34.19917,-118.18785,California
818,San Fernando,CA,US,34.28195,-118.43897,California
828,Asheville,NC,US,35.60095,-82.55402,North Carolina
828,Hickory,NC,US,35.73319,-81.3412,North Carolina
830,Del Rio,TX,US,29.36273,-100.89676,Texas
830,Eagle Pass,TX,US,28.70914,-100.49952,Texas
830,Kerrville,TX,US,30.04743,-99.14032,Texas
830,New Braunfels,TX,US,29.703,-98.12445,Texas
830,Seguin,TX,US,29.56884,-97.96473,Texas
831,Hollister,CA,US,36.85245,-121.4016,California
831,Marina,CA,US,36.6844,-121.80217,California
831,Monterey,CA,US,36.60024,-121.89468,California
831,Salinas,CA,US,36.67774,-121.6555,California
831,Santa Cruz,CA,US,36.97412,-122.0308,California
831,Seaside,CA,US,36.61107,-121.85162,California
831,Watsonville,CA,US,36.91023,-121.75689,California
832,Alvin,TX,US,29.42385,-95.2441,Texas
832,Atascocita,TX,US,29.99883,-95.1766,Texas
832,Baytown,TX,US,29.7355,-94.97743,Texas
832,Channelview,TX,US,29.77606,-95.11465,Texas
832,Cloverleaf,TX,US,29.77828,-95.17188,Texas
832,Deer Park,TX,US,29.70523,-95.12382,Texas
832,Friendswood,TX,US,29.5294,-95.20104,Texas
832,South Houston,TX,US,29.66301,-95.23549,Texas
832,La Porte,TX,US,29.66578,-95.01937,Texas
832,League City,TX,US,29.50745,-95.09493,Texas
832,Mission Bend,TX,US,29.69384,-95.66495,Texas
832,Missouri City,TX,US,29.61857,-95.53772,Texas
832,Pasadena,TX,US,29.69106,-95.2091,Texas
832,Pearland,TX,US,29.56357,-95.28605,Texas
832,Rosenberg,TX,US,29.55718,-95.80856,Texas
832,Spring,TX,US,30.07994,-95.41716,Texas
832,Sugar Land,TX,US,29.61968,-95.63495,Texas
832,The Woodlands,TX,US,30.15799,-95.48938,Texas
843,North Charleston,SC,US,32.85462,-79.97481,South Carolina
843,Florence,SC,US,34.19543,-79.76256,South Carolina
843,Goose Creek,SC,US,32.98101,-80.03259,South Carolina
843,Hilton Head Island,SC,US,32.21632,-80.75261,South Carolina
843,Mount Pleasant,SC,US,32.79407,-79.86259,South Carolina
843,North Myrtle Beach,SC,US,33.81601,-78.68002,South Carolina
843,Summerville,SC,US,33.0185,-80.17565,South Carolina
845,Kingston,NY,US,41.92704,-73.99736,New York
845,Middletown,NY,US,41.44593,-74.42293,New York
845,New City,NY,US,41.1476,-73.98931,New York
845,Newburgh,NY,US,41.50343,-74.01042,New York
845,Poughkeepsie,NY,US,41.70037,-73.92097,New York
845,Spring Valley,NY,US,41.11315,-74.04375,New York
847,Algonquin,IL,US,42.16558,-88.29425,Illinois
847,Arlington Heights,IL,US,42.08836,-87.98063,Illinois
847,Buffalo Grove,IL,US,42.15141,-87.95979,Illinois
847,Carpentersville,IL,US,42.12114,-88.25786,Illinois
847,Des Plaines,IL,US,42.03336,-87.8834,Illinois
847,South Elgin,IL,US,41.99419,-88.2923,Illinois
847,Elk Grove Village,IL,US,42.00392,-87.97035,Illinois
847,Evanston,IL,US,42.04114,-87.69006,Illinois
847,Glenview,IL,US,42.06975,-87.78784,Illinois
847,Gurnee,IL,US,42.3703,-87.90202,Illinois
847,Highland Park,IL,US,42.18169,-87.80034,Illinois
847,Hoffman Estates,IL,US,42.04281,-88.0798,Illinois
847,Lake Forest,IL,US,42.25863,-87.84063,Illinois
847,Lake in the Hills,IL,US,42.18169,-88.33036,Illinois
847,Libertyville,IL,US,42.28308,-87.95313,Illinois
847,Morton Grove,IL,US,42.04059,-87.78256,Illinois
847,Mount Prospect,IL,US,42.06642,-87.93729,Illinois
847,Mundelein,IL,US,42.26308,-88.00397,Illinois
847,Niles,IL,US,42.01892,-87.80284,Illinois
847,North Chicago,IL,US,42.32558,-87.84118,Illinois
847,Northbrook,IL,US,42.12753,-87.82895,Illinois
847,Palatine,IL,US,42.1103,-88.03424,Illinois
847,Park Ridge,IL,US,42.01114,-87.84062,Illinois
847,Rolling Meadows,IL,US,42.08419,-88.01313,Illinois
847,Round Lake Beach,IL,US,42.37169,-88.09008,Illinois
847,Schaumburg,IL,US,42.03336,-88.08341,Illinois
847,Skokie,IL,US,42.03336,-87.73339,Illinois
847,Vernon Hills,IL,US,42.21947,-87.97952,Illinois
847,Waukegan,IL,US,42.36363,-87.84479,Illinois
847,Wheeling,IL,US,42.13919,-87.92896,Illinois
847,Wilmette,IL,US,42.07225,-87.72284,Illinois
847,Zion,IL,US,42.44613,-87.83285,Illinois
848,Carteret,NJ,US,40.57733,-74.2282,New Jersey
848,East Brunswick,NJ,US,40.42788,-74.41598,New Jersey
848,Edison,NJ,US,40.51872,-74.4121,New Jersey
848,Lakewood,NJ,US,40.09789,-74.21764,New Jersey
848,West Long Branch,NJ,US,40.29039,-74.01764,New Jersey
848,New Brunswick,NJ,US,40.48622,-74.45182,New Jersey
848,North Plainfield,NJ,US,40.6301,-74.42737,New Jersey
848,South Old Bridge,NJ,US,40.40816,-74.35432,New Jersey
848,Perth Amboy,NJ,US,40.50677,-74.26542,New Jersey
848,Rahway,NJ,US,40.60816,-74.27765,New Jersey
848,Sayreville,NJ,US,40.45927,-74.36098,New Jersey
848,Somerset,NJ,US,40.4976,-74.48849,New Jersey
848,Toms River,NJ,US,39.95373,-74.19792,New Jersey
850,Bellview,FL,US,30.46159,-87.31497,Florida
850,Brent,FL,US,30.46881,-87.23608,Florida
850,Ferry Pass,FL,US,30.5102,-87.21247,Florida
850,Fort Walton Beach,FL,US,30.42077,-86.61939,Florida
850,Panama City,FL,US,30.15946,-85.65983,Florida
850,West Pensacola,FL,US,30.42659,-87.27969,Florida
850,Tallahassee,FL,US,30.43826,-84.28073,Florida
850,Wright,FL,US,30.45575,-86.63829,Florida
856,Bridgeton,NJ,US,39.42734,-75.23408,New Jersey
856,Camden,NJ,US,39.92595,-75.11962,New Jersey
856,Cherry Hill,NJ,US,39.93484,-75.03073,New Jersey
856,Millville,NJ,US,39.40206,-75.03934,New Jersey
856,Pennsauken,NJ,US,39.95622,-75.05795,New Jersey
856,Vineland,NJ,US,39.48623,-75.02573,New Jersey
856,Willingboro,NJ,US,40.02789,-74.86905,New Jersey
857,Belmont,MA,US,42.39593,-71.17867,Massachusetts
857,South Boston,MA,US,42.33343,-71.04949,Massachusetts
857,Brookline,MA,US,42.33176,-71.12116,Massachusetts
857,Cambridge,MA,US,42.3751,-71.10561,Massachusetts
857,Chelsea,MA,US,42.39176,-71.03283,Massachusetts
857,Everett,MA,US,42.40843,-71.05366,Massachusetts
857,Milton,MA,US,42.24954,-71.06616,Massachusetts
857,Newton,MA,US,42.33704,-71.20922,Massachusetts
857,Quincy,MA,US,42.25288,-71.00227,Massachusetts
857,Somerville,MA,US,42.3876,-71.0995,Massachusetts
857,Watertown,MA,US,42.37093,-71.18283,Massachusetts
858,Poway,CA,US,32.96282,-117.03586,California
859,Covington,KY,US,39.08367,-84.50855,Kentucky
859,Florence,KY,US,38.99895,-84.62661,Kentucky
859,Lexington,KY,US,37.98869,-84.47772,Kentucky
859,Richmond,KY,US,37.74786,-84.29465,Kentucky
860,Bristol,CT,US,41.67176,-72.94927,Connecticut
860,Manchester,CT,US,41.77593,-72.52148,Connecticut
860,East Hartford,CT,US,41.78232,-72.61203,Connecticut
860,West Hartford,CT,US,41.76204,-72.74204,Connecticut
860,Middletown,CT,US,41.56232,-72.65065,Connecticut
860,New Britain,CT,US,41.66121,-72.77954,Connecticut
860,New London,CT,US,41.35565,-72.09952,Connecticut
860,Newington,CT,US,41.69788,-72.72371,Connecticut
860,Norwich,CT,US,41.52426,-72.07591,Connecticut
860,West Torrington,CT,US,41.81843,-73.14372,Connecticut
860,Wethersfield,CT,US,41.71427,-72.65259,Connecticut
862,Belleville,NJ,US,40.79371,-74.15014,New Jersey
862,Bloomfield,NJ,US,40.80677,-74.18542,New Jersey
862,Clifton,NJ,US,40.85843,-74.16376,New Jersey
862,East Orange,NJ,US,40.76732,-74.20487,New Jersey
862,Garfield,NJ,US,40.88149,-74.1132,New Jersey
862,Hillside,NJ,US,40.70121,-74.23015,New Jersey
862,Irvington,NJ,US,40.73232,-74.23487,New Jersey
862,Kearny,NJ,US,40.76843,-74.14542,New Jersey
862,Livingston,NJ,US,40.79593,-74.31487,New Jersey
862,Lodi,NJ,US,40.88232,-74.0832,New Jersey
862,Maplewood,NJ,US,40.73121,-74.27348,New Jersey
862,Montclair,NJ,US,40.82593,-74.20903,New Jersey
862,Morristown,NJ,US,40.79677,-74.48154,New Jersey
862,Newark,NJ,US,40.73566,-74.17237,New Jersey
862,Nutley,NJ,US,40.82232,-74.15987,New Jersey
862,West Orange,NJ,US,40.79871,-74.23904,New Jersey
862,Passaic,NJ,US,40.85677,-74.12848,New Jersey
862,Paterson,NJ,US,40.91677,-74.17181,New Jersey
862,Wayne,NJ,US,40.92538,-74.27654,New Jersey
862,West Milford,NJ,US,41.13121,-74.36737,New Jersey
863,Lakeland,FL,US,28.03947,-81.9498,Florida
863,Winter Haven,FL,US,28.02224,-81.73286,Florida
864,Anderson,SC,US,34.50344,-82.65013,South Carolina
864,Greenville,SC,US,34.85262,-82.39401,South Carolina
864,Greenwood,SC,US,34.1954,-82.16179,South Carolina
864,Spartanburg,SC,US,34.94957,-81.93205,South Carolina
864,Taylors,SC,US,34.92039,-82.29623,South Carolina
864,Wade Hampton,SC,US,34.90373,-82.33317,South Carolina
865,Knoxville,TN,US,35.96064,-83.92074,Tennessee
865,Maryville,TN,US,35.75647,-83.97046,Tennessee
865,Oak Ridge,TN,US,36.01036,-84.26964,Tennessee
870,El Dorado,AR,US,33.20763,-92.66627,Arkansas
870,Jonesboro,AR,US,35.8423,-90.70428,Arkansas
870,Paragould,AR,US,36.0584,-90.49733,Arkansas
870,Pine Bluff,AR,US,34.22843,-92.0032,Arkansas
870,Texarkana,AR,US,33.44179,-94.03769,Arkansas
870,West Memphis,AR,US,35.14648,-90.18454,Arkansas
878,Bethel Park,PA,US,40.32757,-80.0395,Pennsylvania
878,McKeesport,PA,US,40.34785,-79.86422,Pennsylvania
878,Mount Lebanon,PA,US,40.35535,-80.0495,Pennsylvania
878,Monroeville,PA,US,40.42118,-79.7881,Pennsylvania
878,New Castle,PA,US,41.00367,-80.34701,Pennsylvania
878,Penn Hills,PA,US,40.50118,-79.83922,Pennsylvania
878,Pittsburgh,PA,US,40.44062,-79.99589,Pennsylvania
878,Plum,PA,US,40.50035,-79.74949,Pennsylvania
878,Upper Saint Clair,PA,US,40.3359,-80.08339,Pennsylvania
878,West Mifflin,PA,US,40.3634,-79.86644,Pennsylvania
901,Bartlett,TN,US,35.20453,-89.87398,Tennessee
901,Collierville,TN,US,35.04204,-89.66453,Tennessee
901,Germantown,TN,US,35.08676,-89.81009,Tennessee
901,Memphis,TN,US,35.14953,-90.04898,Tennessee
903,Corsicana,TX,US,32.09543,-96.46887,Texas
903,Denison,TX,US,33.75566,-96.53666,Texas
903,Greenville,TX,US,33.13845,-96.11081,Texas
903,Longview,TX,US,32.5007,-94.74049,Texas
903,Marshall,TX,US,32.54487,-94.36742,Texas
903,Paris,TX,US,33.66094,-95.55551,Texas
903,Sherman,TX,US,33.63566,-96.60888,Texas
903,Texarkana,TX,US,33.42513,-94.04769,Texas
903,Tyler,TX,US,32.35126,-95.30106,Texas
904,Jacksonville,FL,US,30.33218,-81.65565,Florida
904,Jacksonville Beach,FL,US,30.29469,-81.39314,Florida
904,Lakeside,FL,US,30.12996,-81.76815,Florida
907,Anchorage,AK,US,61.21806,-149.90028,Alaska
907,College,AK,US,64.85694,-147.80278,Alaska
907,Fairbanks,AK,US,64.83778,-147.71639,Alaska
907,Juneau,AK,US,58.30194,-134.41972,Alaska
907,Ketchikan,AK,US,55.34225,-131.64784,Alaska
907,Sitka,AK,US,57.05315,-135.33088,Alaska
908,Cranford,NJ,US,40.65844,-74.29959,New Jersey
908,Elizabeth,NJ,US,40.66399,-74.2107,New Jersey
908,Hillside,NJ,US,40.70121,-74.23015,New Jersey
908,Linden,NJ,US,40.62205,-74.24459,New Jersey
908,South Plainfield,NJ,US,40.57927,-74.41154,New Jersey
908,Roselle,NJ,US,40.65223,-74.25882,New Jersey
908,Scotch Plains,NJ,US,40.65538,-74.38987,New Jersey
908,Summit,NJ,US,40.74149,-74.35959,New Jersey
908,Union City,NJ,US,40.77955,-74.02375,New Jersey
908,Westfield,NJ,US,40.65899,-74.34737,New Jersey
909,Chino,CA,US,34.01223,-117.68894,California
909,Chino Hills,CA,US,33.9938,-117.75888,California
909,Claremont,CA,US,34.09668,-117.71978,California
909,Colton,CA,US,34.0739,-117.31365,California
909,Diamond Bar,CA,US,34.02862,-117.81034,California
909,Fontana,CA,US,34.09223,-117.43505,California
909,Highland,CA,US,34.12834,-117.20865,California
909,La Verne,CA,US,34.10084,-117.76784,California
909,Montclair,CA,US,34.07751,-117.68978,California
909,Ontario,CA,US,34.06334,-117.65089,California
909,Pomona,CA,US,34.05529,-117.75228,California
909,Rancho Cucamonga,CA,US,34.1064,-117.59311,California
909,Redlands,CA,US,34.05557,-117.18254,California
909,Rialto,CA,US,34.1064,-117.37032,California
909,San Bernardino,CA,US,34.10834,-117.28977,California
909,San Dimas,CA,US,34.10668,-117.80673,California
909,Upland,CA,US,34.09751,-117.64839,California
909,Yucaipa,CA,US,34.03363,-117.04309,California
910,Fayetteville,NC,US,35.05266,-78.87836,North Carolina
910,Fort Bragg,NC,US,35.139,-79.00603,North Carolina
910,Jacksonville,NC,US,34.75405,-77.43024,North Carolina
910,Lumberton,NC,US,34.61834,-79.01045,North Carolina
910,Wilmington,NC,US,34.22573,-77.94471,North Carolina
912,Hinesville,GA,US,31.84688,-81.59595,Georgia
912,Savannah,GA,US,32.08354,-81.09983,Georgia
912,Statesboro,GA,US,32.44879,-81.78317,Georgia
913,Kansas City,KS,US,39.11417,-94.62746,Kansas
913,Leavenworth,KS,US,39.31111,-94.92246,Kansas
913,Leawood,KS,US,38.96667,-94.6169,Kansas
913,Lenexa,KS,US,38.95362,-94.73357,Kansas
913,Olathe,KS,US,38.8814,-94.81913,Kansas
913,Overland Park,KS,US,38.98223,-94.67079,Kansas
913,Prairie Village,KS,US,38.99167,-94.63357,Kansas
913,Shawnee,KS,US,39.04167,-94.72024,Kansas
914,Harrison,NY,US,40.96899,-73.71263,New York
914,Mount Vernon,NY,US,40.9126,-73.83708,New York
914,New Rochelle,NY,US,40.91149,-73.78235,New York
914,Ossining,NY,US,41.16287,-73.86152,New York
914,Peekskill,NY,US,41.29009,-73.92042,New York
914,Port Chester,NY,US,41.00176,-73.66568,New York
914,White Plains,NY,US,41.03399,-73.76291,New York
914,Yonkers,NY,US,40.93121,-73.89875,New York
915,El Paso,TX,US,31.75872,-106.48693,Texas
915,Socorro,TX,US,31.65456,-106.30331,Texas
916,Arden-Arcade,CA,US,38.6025,-121.37854,California
916,Carmichael,CA,US,38.61713,-121.32828,California
916,Citrus Heights,CA,US,38.70712,-121.28106,California
916,Elk Grove,CA,US,38.4088,-121.37162,California
916,North Fair Oaks,CA,US,37.47438,-122.19663,California
916,Florin,CA,US,38.49602,-121.40884,California
916,Folsom,CA,US,38.67796,-121.17606,California
916,La Riviera,CA,US,38.56685,-121.3569,California
916,Laguna,CA,US,38.42102,-121.42384,California
916,North Highlands,CA,US,38.68574,-121.37217,California
916,Orangevale,CA,US,38.67851,-121.22578,California
916,Rancho Cordova,CA,US,38.58907,-121.30273,California
916,Rocklin,CA,US,38.79073,-121.23578,California
916,Rosemont,CA,US,38.55185,-121.36467,California
916,Roseville,CA,US,38.75212,-121.28801,California
916,West Sacramento,CA,US,38.58046,-121.53023,California
917,The Bronx,NY,US,40.84985,-73.86641,New York
917,Brooklyn,NY,US,40.6501,-73.94958,New York
917,New York City,NY,US,40.71427,-74.00597,New York
917,Borough of Queens,NY,US,40.68149,-73.83652,New York
917,Staten Island,NY,US,40.56233,-74.13986,New York
918,Bartlesville,OK,US,36.74731,-95.98082,Oklahoma
918,Broken Arrow,OK,US,36.0526,-95.79082,Oklahoma
918,Muskogee,OK,US,35.74788,-95.36969,Oklahoma
918,Tulsa,OK,US,36.15398,-95.99277,Oklahoma
919,Apex,NC,US,35.73265,-78.85029,North Carolina
919,Cary,NC,US,35.79154,-78.78112,North Carolina
919,Chapel Hill,NC,US,35.9132,-79.05584,North Carolina
919,Durham,NC,US,35.99403,-78.89862,North Carolina
919,Goldsboro,NC,US,35.38488,-77.99277,North Carolina
919,West Raleigh,NC,US,35.78682,-78.66389,North Carolina
919,Sanford,NC,US,35.47988,-79.1803,North Carolina
920,Appleton,WI,US,44.26193,-88.41538,Wisconsin
920,De Pere,WI,US,44.44888,-88.06038,Wisconsin
920,North Fond du Lac,WI,US,43.81138,-88.48344,Wisconsin
920,Green Bay,WI,US,44.51916,-88.01983,Wisconsin
920,Manitowoc,WI,US,44.08861,-87.65758,Wisconsin
920,Neenah,WI,US,44.18582,-88.46261,Wisconsin
920,Oshkosh,WI,US,44.02471,-88.54261,Wisconsin
920,Sheboygan,WI,US,43.75083,-87.71453,Wisconsin
920,Watertown,WI,US,43.19472,-88.72899,Wisconsin
925,Antioch,CA,US,38.00492,-121.80579,California
925,Bay Point,CA,US,38.02909,-121.96163,California
925,Brentwood,CA,US,37.93187,-121.69579,California
925,Concord,CA,US,37.97798,-122.03107,California
925,Danville,CA,US,37.82159,-121.99996,California
925,Dublin,CA,US,37.70215,-121.93579,California
925,Lafayette,CA,US,37.88576,-122.11802,California
925,Livermore,CA,US,37.68187,-121.76801,California
925,Martinez,CA,US,38.01937,-122.13413,California
925,Oakley,CA,US,37.99742,-121.71245,California
925,Pittsburg,CA,US,38.02798,-121.88468,California
925,Pleasant Hill,CA,US,37.94798,-122.0608,California
925,Pleasanton,CA,US,37.66243,-121.87468,California
925,San Ramon,CA,US,37.77993,-121.97802,California
925,Walnut Creek,CA,US,37.90631,-122.06496,California
928,Bullhead City,AZ,US,35.14778,-114.5683,Arizona
928,Flagstaff,AZ,US,35.19807,-111.65127,Arizona
928,Fortuna Foothills,AZ,US,32.65783,-114.41189,Arizona
928,Kingman,AZ,US,35.18944,-114.05301,Arizona
928,Lake Havasu City,AZ,US,34.4839,-114.32245,Arizona
928,Prescott,AZ,US,34.54002,-112.4685,Arizona
928,Prescott Valley,AZ,US,34.61002,-112.31572,Arizona
928,Yuma,AZ,US,32.72532,-114.6244,Arizona
929,The Bronx,NY,US,40.84985,-73.86641,New York
929,Brooklyn,NY,US,40.6501,-73.94958,New York
929,New York City,NY,US,40.71427,-74.00597,New York
929,Borough of Queens,NY,US,40.68149,-73.83652,New York
929,Staten Island,NY,US,40.56233,-74.13986,New York
930,Bloomington,IN,US,39.16533,-86.52639,Indiana
930,Clarksville,IN,US,38.29674,-85.75996,Indiana
930,Columbus,IN,US,39.20144,-85.92138,Indiana
930,Evansville,IN,US,37.97476,-87.55585,Indiana
930,Jeffersonville,IN,US,38.27757,-85.73718,Indiana
930,New Albany,IN,US,38.28562,-85.82413,Indiana
930,Terre Haute,IN,US,39.4667,-87.41391,Indiana
931,Clarksville,TN,US,36.52977,-87.35945,Tennessee
931,Columbia,TN,US,35.61507,-87.03528,Tennessee
931,Cookeville,TN,US,36.16284,-85.50164,Tennessee
936,Conroe,TX,US,30.31188,-95.45605,Texas
936,Huntsville,TX,US,30.72353,-95.55078,Texas
936,Lufkin,TX,US,31.33824,-94.7291,Texas
936,Nacogdoches,TX,US,31.60351,-94.65549,Texas
937,Beavercreek,OH,US,39.70923,-84.06327,Ohio
937,Centerville,OH,US,39.62839,-84.15938,Ohio
937,Dayton,OH,US,39.75895,-84.19161,Ohio
937,Fairborn,OH,US,39.82089,-84.01938,Ohio
937,Huber Heights,OH,US,39.84395,-84.12466,Ohio
937,Kettering,OH,US,39.6895,-84.16883,Ohio
937,Piqua,OH,US,40.14477,-84.24244,Ohio
937,Riverside,OH,US,39.77978,-84.1241,Ohio
937,Sidney,OH,US,40.28422,-84.1555,Ohio
937,Springfield,OH,US,39.92423,-83.80882,Ohio
937,Trotwood,OH,US,39.79728,-84.31133,Ohio
937,Troy,OH,US,40.0395,-84.20328,Ohio
937,Xenia,OH,US,39.68478,-83.92965,Ohio
940,Denton,TX,US,33.21484,-97.13307,Texas
940,Lewisville,TX,US,33.04623,-96.99417,Texas
940,Wichita Falls,TX,US,33.91371,-98.49339,Texas
941,South Bradenton,FL,US,27.4631,-82.58176,Florida
941,North Port,FL,US,27.04422,-82.23593,Florida
941,Port Charlotte,FL,US,26.97617,-82.09064,Florida
941,Punta Gorda,FL,US,26.92978,-82.04537,Florida
941,Sarasota,FL,US,27.33643,-82.53065,Florida
947,West Bloomfield Township,MI,US,42.56891,-83.38356,Michigan
947,Farmington Hills,MI,US,42.48531,-83.37716,Michigan
947,Ferndale,MI,US,42.46059,-83.13465,Michigan
947,Madison Heights,MI,US,42.48587,-83.1052,Michigan
947,Novi,MI,US,42.48059,-83.47549,Michigan
947,Oak Park,MI,US,42.45948,-83.18271,Michigan
947,Pontiac,MI,US,42.63892,-83.29105,Michigan
947,Rochester Hills,MI,US,42.65837,-83.14993,Michigan
947,Royal Oak,MI,US,42.48948,-83.14465,Michigan
947,Southfield,MI,US,42.47337,-83.22187,Michigan
947,Troy,MI,US,42.60559,-83.14993,Michigan
947,Waterford,MI,US,42.69303,-83.41181,Michigan
949,Aliso Viejo,CA,US,33.56504,-117.72712,California
949,Costa Mesa,CA,US,33.64113,-117.91867,California
949,Dana Point,CA,US,33.46697,-117.69811,California
949,Irvine,CA,US,33.66946,-117.82311,California
949,Laguna Beach,CA,US,33.54225,-117.78311,California
949,Laguna Hills,CA,US,33.61252,-117.71283,California
949,Laguna Niguel,CA,US,33.52253,-117.70755,California
949,Lake Forest,CA,US,33.64697,-117.68922,California
949,Mission Viejo,CA,US,33.60002,-117.672,California
949,Newport Beach,CA,US,33.61891,-117.92895,California
949,Rancho Santa Margarita,CA,US,33.64086,-117.6031,California
949,San Clemente,CA,US,33.42697,-117.61199,California
949,San Juan Capistrano,CA,US,33.50169,-117.66255,California
951,Banning,CA,US,33.92557,-116.87641,California
951,Corona,CA,US,33.87529,-117.56644,California
951,Hemet,CA,US,33.74761,-116.97307,California
951,Moreno Valley,CA,US,33.93752,-117.23059,California
951,Murrieta,CA,US,33.55391,-117.21392,California
951,Norco,CA,US,33.93113,-117.54866,California
951,Perris,CA,US,33.78252,-117.22865,California
951,Riverside,CA,US,33.95335,-117.39616,California
951,Rubidoux,CA,US,33.99613,-117.4056,California
951,Temecula,CA,US,33.49364,-117.14836,California
952,Bloomington,MN,US,44.8408,-93.29828,Minnesota
952,Burnsville,MN,US,44.76774,-93.27772,Minnesota
952,Chanhassen,MN,US,44.86219,-93.53079,Minnesota
952,Eden Prairie,MN,US,44.85469,-93.47079,Minnesota
952,Edina,MN,US,44.88969,-93.34995,Minnesota
952,Minnetonka,MN,US,44.9133,-93.50329,Minnesota
952,Savage,MN,US,44.77913,-93.33634,Minnesota
952,Shakopee,MN,US,44.79802,-93.5269,Minnesota
954,Coconut Creek,FL,US,26.25175,-80.17894,Florida
954,Cooper City,FL,US,26.05731,-80.27172,Florida
954,Coral Springs,FL,US,26.27119,-80.2706,Florida
954,Dania Beach,FL,US,26.05231,-80.14393,Florida
954,Davie,FL,US,26.06287,-80.2331,Florida
954,Deerfield Beach,FL,US,26.31841,-80.09977,Florida
954,Fort Lauderdale,FL,US,26.12231,-80.14338,Florida
954,Hallandale Beach,FL,US,25.9812,-80.14838,Florida
954,Hollywood,FL,US,26.0112,-80.14949,Florida
954,Lauderdale Lakes,FL,US,26.16647,-80.20838,Florida
954,Lauderhill,FL,US,26.14036,-80.21338,Florida
954,Margate,FL,US,26.24453,-80.20644,Florida
954,North Lauderdale,FL,US,26.2173,-80.22588,Florida
954,Pembroke Pines,FL,US,26.00315,-80.22394,Florida
954,Plantation,FL,US,26.13421,-80.23184,Florida
954,Pompano Beach,FL,US,26.23786,-80.12477,Florida
954,Sunrise,FL,US,26.13397,-80.1131,Florida
954,Tamarac,FL,US,26.21286,-80.24977,Florida
954,Weston,FL,US,26.10037,-80.39977,Florida
956,Brownsville,TX,US,25.90175,-97.49748,Texas
956,Edinburg,TX,US,26.30174,-98.16334,Texas
956,Harlingen,TX,US,26.19063,-97.6961,Texas
956,Laredo,TX,US,27.50641,-99.50754,Texas
956,McAllen,TX,US,26.20341,-98.23001,Texas
956,Mission,TX,US,26.21591,-98.32529,Texas
956,Pharr,TX,US,26.1948,-98.18362,Texas
956,San Benito,TX,US,26.13258,-97.6311,Texas
956,San Juan,TX,US,26.18924,-98.15529,Texas
956,Weslaco,TX,US,26.15952,-97.99084,Texas
959,Bristol,CT,US,41.67176,-72.94927,Connecticut
959,Manchester,CT,US,41.77593,-72.52148,Connecticut
959,East Hartford,CT,US,41.78232,-72.61203,Connecticut
959,West Hartford,CT,US,41.76204,-72.74204,Connecticut
959,Middletown,CT,US,41.56232,-72.65065,Connecticut
959,New Britain,CT,US,41.66121,-72.77954,Connecticut
959,New London,CT,US,41.35565,-72.09952,Connecticut
959,Newington,CT,US,41.69788,-72.72371,Connecticut
959,Norwich,CT,US,41.52426,-72.07591,Connecticut
959,West Torrington,CT,US,41.81843,-73.14372,Connecticut
959,Wethersfield,CT,US,41.71427,-72.65259,Connecticut
970,Fort Collins,CO,US,40.58526,-105.08442,Colorado
970,Grand Junction,CO,US,39.06387,-108.55065,Colorado
970,Greeley,CO,US,40.42331,-104.70913,Colorado
970,Loveland,CO,US,40.39776,-105.07498,Colorado
971,Aloha,OR,US,45.49428,-122.86705,Oregon
971,Beaverton,OR,US,45.48706,-122.80371,Oregon
971,Gresham,OR,US,45.49818,-122.43148,Oregon
971,Hillsboro,OR,US,45.52289,-122.98983,Oregon
971,Keizer,OR,US,44.99012,-123.02621,Oregon
971,Lake Oswego,OR,US,45.42067,-122.67065,Oregon
971,McMinnville,OR,US,45.21012,-123.19872,Oregon
971,Milwaukie,OR,US,45.44623,-122.63926,Oregon
971,Oregon City,OR,US,45.35734,-122.60676,Oregon
971,Portland,OR,US,45.52345,-122.67621,Oregon
971,Salem,OR,US,44.9429,-123.0351,Oregon
971,Tigard,OR,US,45.43123,-122.77149,Oregon
971,Tualatin,OR,US,45.38401,-122.76399,Oregon
971,West Linn,OR,US,45.36568,-122.61231,Oregon
971,Woodburn,OR,US,45.14373,-122.85537,Oregon
972,Allen,TX,US,33.10317,-96.67055,Texas
972,Carrollton,TX,US,32.95373,-96.89028,Texas
972,Cedar Hill,TX,US,32.58847,-96.95612,Texas
972,Coppell,TX,US,32.95457,-97.01501,Texas
972,Dallas,TX,US,32.78306,-96.80667,Texas
972,DeSoto,TX,US,32.58986,-96.85695,Texas
972,Duncanville,TX,US,32.6518,-96.90834,Texas
972,Farmers Branch,TX,US,32.92651,-96.89612,Texas
972,Flower Mound,TX,US,33.01457,-97.09696,Texas
972,Frisco,TX,US,33.15067,-96.82361,Texas
972,Garland,TX,US,32.91262,-96.63888,Texas
972,Grand Prairie,TX,US,32.74596,-96.99778,Texas
972,Irving,TX,US,32.81402,-96.94889,Texas
972,Lancaster,TX,US,32.59208,-96.75611,Texas
972,Lewisville,TX,US,33.04623,-96.99417,Texas
972,McKinney,TX,US,33.19762,-96.61527,Texas
972,Mesquite,TX,US,32.7668,-96.59916,Texas
972,Plano,TX,US,33.01984,-96.69889,Texas
972,Richardson,TX,US,32.94818,-96.72972,Texas
972,Rowlett,TX,US,32.9029,-96.56388,Texas
972,The Colony,TX,US,33.08901,-96.88639,Texas
972,University Park,TX,US,32.85013,-96.80028,Texas
972,Waxahachie,TX,US,32.38653,-96.84833,Texas
973,Belleville,NJ,US,40.79371,-74.15014,New Jersey
973,Bloomfield,NJ,US,40.80677,-74.18542,New Jersey
973,Clifton,NJ,US,40.85843,-74.16376,New Jersey
973,East Orange,NJ,US,40.76732,-74.20487,New Jersey
973,Garfield,NJ,US,40.88149,-74.1132,New Jersey
973,Irvington,NJ,US,40.73232,-74.23487,New Jersey
973,Livingston,NJ,US,40.79593,-74.31487,New Jersey
973,Lodi,NJ,US,40.88232,-74.0832,New Jersey
973,Maplewood,NJ,US,40.73121,-74.27348,New Jersey
973,Montclair,NJ,US,40.82593,-74.20903,New Jersey
973,Morristown,NJ,US,40.79677,-74.48154,New Jersey
973,Newark,NJ,US,40.73566,-74.17237,New Jersey
973,Nutley,NJ,US,40.82232,-74.15987,New Jersey
973,West Orange,NJ,US,40.79871,-74.23904,New Jersey
973,Passaic,NJ,US,40.85677,-74.12848,New Jersey
973,Paterson,NJ,US,40.91677,-74.17181,New Jersey
973,Wayne,NJ,US,40.92538,-74.27654,New Jersey
973,West Milford,NJ,US,41.13121,-74.36737,New Jersey
978,Beverly,MA,US,42.55843,-70.88005,Massachusetts
978,Chelmsford,MA,US,42.59981,-71.36728,Massachusetts
978,Danvers,MA,US,42.57509,-70.93005,Massachusetts
978,Fitchburg,MA,US,42.58342,-71.8023,Massachusetts
978,Gardner,MA,US,42.57509,-71.99813,Massachusetts
978,Gloucester,MA,US,42.61593,-70.66199,Massachusetts
978,Haverhill,MA,US,42.7762,-71.07728,Massachusetts
978,Lawrence,MA,US,42.70704,-71.16311,Massachusetts
978,Leominster,MA,US,42.52509,-71.75979,Massachusetts
978,Lowell,MA,US,42.63342,-71.31617,Massachusetts
978,Methuen,MA,US,42.7262,-71.19089,Massachusetts
978,South Peabody,MA,US,42.50982,-70.94949,Massachusetts
978,Salem,MA,US,42.51954,-70.89672,Massachusetts
978,Wilmington,MA,US,42.54648,-71.17367,Massachusetts
979,Bryan,TX,US,30.67436,-96.36996,Texas
979,College Station,TX,US,30.62798,-96.33441,Texas
979,Lake Jackson,TX,US,29.03386,-95.43439,Texas
980,Charlotte,NC,US,35.22709,-80.84313,North Carolina
980,Concord,NC,US,35.40888,-80.58158,North Carolina
980,South Gastonia,NC,US,35.2193,-81.20563,North Carolina
980,Huntersville,NC,US,35.41069,-80.84285,North Carolina
980,Kannapolis,NC,US,35.48736,-80.62173,North Carolina
980,Matthews,NC,US,35.11681,-80.72368,North Carolina
980,Monroe,NC,US,34.98543,-80.54951,North Carolina
980,Salisbury,NC,US,35.67097,-80.47423,North Carolina
980,Statesville,NC,US,35.78264,-80.8873,North Carolina
984,Apex,NC,US,35.73265,-78.85029,North Carolina
984,Cary,NC,US,35.79154,-78.78112,North Carolina
984,Chapel Hill,NC,US,35.9132,-79.05584,North Carolina
984,Durham,NC,US,35.99403,-78.89862,North Carolina
984,Goldsboro,NC,US,35.38488,-77.99277,North Carolina
984,West Raleigh,NC,US,35.78682,-78.66389,North Carolina
984,Sanford,NC,US,35.47988,-79.1803,North Carolina
985,Houma,LA,US,29.59577,-90.71953,Louisiana
985,Laplace,LA,US,30.06698,-90.48147,Louisiana
985,Slidell,LA,US,30.27519,-89.78117,Louisiana
989,Bay City,MI,US,43.59447,-83.88886,Michigan
989,Midland,MI,US,43.61558,-84.24721,Michigan
989,Mount Pleasant,MI,US,43.59781,-84.76751,Michigan
989,Saginaw,MI,US,43.41947,-83.95081,Michigan
854,North Charleston,SC,US,32.85462,-79.97481,South Carolina
854,Florence,SC,US,34.19543,-79.76256,South Carolina
854,Goose Creek,SC,US,32.98101,-80.03259,South Carolina
854,Hilton Head Island,SC,US,32.21632,-80.75261,South Carolina
854,Mount Pleasant,SC,US,32.79407,-79.86259,South Carolina
854,North Myrtle Beach,SC,US,33.81601,-78.68002,South Carolina
854,Summerville,SC,US,33.0185,-80.17565,South Carolina
279,Sacramento,CA,US,38.5816,-121.4944,California
380,Columbus,OH,US,39.9612,-82.9988,Ohio
445,Philadelphia,PA,US,39.9526,-75.1652,Pennsylvania
835,Philadelphia,PA,US,39.9526,-75.1652,Pennsylvania
986,Boise,ID,US,43.615,-116.2023,Idaho
202,Washington,DC,US,38.9072,-77.0369,District of Columbia
872,Chicago,IL,US,41.8781,-87.6298,Illinois
341,Oakland,CA,US,37.8044,-122.2711,California
119,Not Assigned,,,,,
332,New York City,NY,US,40.7128,-74.006,New York
787,San Juan,PR,US,18.4655,-66.1057,Puerto Rico
689,Orlando,FL,US,28.5383,-81.3792,Florida
726,San Antonio,TX,US,29.4241,-98.4936,Texas
800,Toll-Free,,US,,,
564,Olympia,WA,US,47.0379,-122.9007,Washington
470,Atlanta,GA,US,33.749,-84.388,Georgia
475,Bridgeport,CT,US,41.1792,-73.1894,Connecticut
888,Toll-Free,,US,,,
448,Not Assigned,,,,,
945,Dallas,TX,US,32.7767,-96.797,Texas
844,Toll-Free,,US,,,
866,Toll-Free,,US,,,
855,Toll-Free,,US,,,
223,Harrisburg,PA,US,40.2732,-76.8867,Pennsylvania
939,San Juan,PR,US,18.4655,-66.1057,Puerto Rico